[
  {
    "district": "강남구",
    "center_name": "LH행복꿈터열린마음지역아동센터",
    "address": "서울 강남구 자곡로3길 22, 314동 1층 (자곡동, LH강남3단지)",
    "phone": "02-3411-0981",
    "capacity": 19,
    "lat": 37.4707470735383,
    "lon": 127.091358757528,
    "zipcode": "06374",
    "fee": 0,
    "sat_yn": "N"
  },
  {
    "district": "강남구",
    "center_name": "강남지역아동센터",
    "address": "서울 강남구 개포로28길 11, 3층 (개포동, 동양빌딩)",
    "phone": "02-577-7179",
    "capacity": 29,
    "lat": 37.4783,
    "lon": 127.04975,
    "zipcode": "06309",
    "fee": 0,
    "sat_yn": "N"
  },
  {
    "district": "강남구",
    "center_name": "비젼학교지역아동센터",
    "address": "서울 강남구 일원로3길 38, 2층 (일원동)",
    "phone": "070-7555-2229",
    "capacity": 29,
    "lat": 37.49211,
    "lon": 127.08342,
    "zipcode": "06343",
    "fee": 0,
    "sat_yn": "Y"
  },
  {
    "district": "강동구",
    "center_name": "강동꿈나무지역아동센터",
    "address": "서울 강동구 올림픽로89길 27-30, 2층 (천호동)",
    "phone": "02-478-7220",
    "capacity": 25,
    "lat": 37.5468,
    "lon": 127.12385,
    "zipcode": "05244",
    "fee": 0,
    "sat_yn": "N"
  },
  {
    "district": "강동구",
    "center_name": "강일지역아동센터",
    "address": "서울 강동구 천호대로221길 37, 4층 (상일동)",
    "phone": "02-6081-3300",
    "capacity": 25,
    "lat": 37.56157,
    "lon": 127.17025,
    "zipcode": "05222",
    "fee": 0,
    "sat_yn": "N"
  },
  {
    "district": "강동구",
    "center_name": "구립고덕2동청소년지역아동센터",
    "address": "서울 강동구 상일로 17길 17, 성신빌딩 4층",
    "phone": "02-441-5423",
    "capacity": 30,
    "lat": 37.55879,
    "lon": 127.16996,
    "zipcode": "05222",
    "fee": 0,
    "sat_yn": "N"
  },
  {
    "district": "강동구",
    "center_name": "구립길리청소년지역아동센터",
    "address": "서울 강동구 양재대로1501 길동청년주택B, 2층 (길동)",
    "phone": "02-483-1318",
    "capacity": 23,
    "lat": 37.53732,
    "lon": 127.14206,
    "zipcode": "05351",
    "fee": 0,
    "sat_yn": "N"
  },
  {
    "district": "강동구",
    "center_name": "구립성내지역아동센터",
    "address": "서울 강동구 성안로13길 56, 4층 (성내동, 성내종합사회복지관)",
    "phone": "070-4164-1200",
    "capacity": 25,
    "lat": 37.53221,
    "lon": 127.12936,
    "zipcode": "05388",
    "fee": 0,
    "sat_yn": "N"
  },
  {
    "district": "강동구",
    "center_name": "구립우등생지역아동센터",
    "address": "서울 강동구 진황도로 23길 7, 5층 (천호3동, 공공복합청사)",
    "phone": "02-2041-7871",
    "capacity": 19,
    "lat": 37.5359,
    "lon": 127.13962,
    "zipcode": "05352",
    "fee": 0,
    "sat_yn": "N"
  },
  {
    "district": "강동구",
    "center_name": "구립함께하는지역아동센터",
    "address": "서울 강동구 상일로12길 95, 102동 403호 (강일동, 푸르내)",
    "phone": "02-429-6900",
    "capacity": 35,
    "lat": 37.55678,
    "lon": 127.17232,
    "zipcode": "05285",
    "fee": 0,
    "sat_yn": "N"
  },
  {
    "district": "강동구",
    "center_name": "길동지역아동센터",
    "address": "서울 강동구 천호대로187길 30, 2층 (길동)",
    "phone": "02-485-5551",
    "capacity": 19,
    "lat": 37.53563,
    "lon": 127.14274,
    "zipcode": "05350",
    "fee": 0,
    "sat_yn": "N"
  },
  {
    "district": "강동구",
    "center_name": "꿈꾸는땅지역아동센터",
    "address": "서울 강동구 아리수로93나길 90 (강일동)",
    "phone": "02-3427-0679",
    "capacity": 19,
    "lat": 37.57272,
    "lon": 127.1767,
    "zipcode": "05415",
    "fee": 0,
    "sat_yn": "N"
  },
  {
    "district": "강동구",
    "center_name": "나래지역아동센터",
    "address": "서울 강동구 천중로53길 21, 2층 (길동)",
    "phone": "02-474-2103",
    "capacity": 32,
    "lat": 37.54186,
    "lon": 127.14535,
    "zipcode": "05304",
    "fee": 0,
    "sat_yn": "N"
  },
  {
    "district": "강동구",
    "center_name": "돋움지역아동센터",
    "address": "서울 강동구 동남로81길 82, 3층 (고덕동)",
    "phone": "02-6081-5252",
    "capacity": 31,
    "lat": 37.55906,
    "lon": 127.15255,
    "zipcode": "05227",
    "fee": 0,
    "sat_yn": "N"
  },
  {
    "district": "강동구",
    "center_name": "들꽃청소년지역아동센터",
    "address": "서울 강동구 상암로4길 11, 2층 (암사동)",
    "phone": "02-478-0504",
    "capacity": 25,
    "lat": 37.54553,
    "lon": 127.12642,
    "zipcode": "05323",
    "fee": 0,
    "sat_yn": "N"
  },
  {
    "district": "강동구",
    "center_name": "마을학교지역아동센터",
    "address": "서울 강동구 풍성로54길 27, 3층 (성내동)",
    "phone": "02-488-0816",
    "capacity": 25,
    "lat": 37.52827,
    "lon": 127.1336,
    "zipcode": "05404",
    "fee": 0,
    "sat_yn": "N"
  },
  {
    "district": "강동구",
    "center_name": "명성지역아동센터",
    "address": "서울 강동구 천중로35길 73-7 (천호동, 명성선교복지관가나안의집)",
    "phone": "02-474-6940",
    "capacity": 25,
    "lat": 37.5446,
    "lon": 127.13799,
    "zipcode": "05312",
    "fee": 0,
    "sat_yn": "N"
  },
  {
    "district": "강동구",
    "center_name": "밝은미래지역아동센터",
    "address": "서울 강동구 상암로3길 18, 3층 (암사동)",
    "phone": "02-442-0518",
    "capacity": 27,
    "lat": 37.55103,
    "lon": 127.12963,
    "zipcode": "05263",
    "fee": 0,
    "sat_yn": "N"
  },
  {
    "district": "강동구",
    "center_name": "배움터지역아동센터",
    "address": "서울 강동구 성안로 191, 2층 (천호동)",
    "phone": "02-478-6336",
    "capacity": 25,
    "lat": 37.54012,
    "lon": 127.13649,
    "zipcode": "05332",
    "fee": 0,
    "sat_yn": "Y"
  },
  {
    "district": "강동구",
    "center_name": "서울중심지역아동센터",
    "address": "서울 강동구 천호대로162길 34, 상가 214호~216호 (성내동, 이안강동)",
    "phone": "02-488-1067",
    "capacity": 25,
    "lat": 37.53557,
    "lon": 127.12795,
    "zipcode": "05384",
    "fee": 0,
    "sat_yn": "N"
  },
  {
    "district": "강동구",
    "center_name": "소리마을지역아동센터",
    "address": "서울 강동구 구천면로 287-1, 1층 (천호동, 한나빌딩)",
    "phone": "02-472-3557",
    "capacity": 34,
    "lat": 37.54576,
    "lon": 127.13335,
    "zipcode": "05320",
    "fee": 0,
    "sat_yn": "N"
  },
  {
    "district": "강동구",
    "center_name": "아름다운지역아동센터",
    "address": "서울 강동구 아리수로94길 19, 상가동 204호 (강일동, 강일리버파크6단지아파트)",
    "phone": "070-4100-4323",
    "capacity": 25,
    "lat": 37.56305,
    "lon": 127.17652,
    "zipcode": "05213",
    "fee": 0,
    "sat_yn": "N"
  },
  {
    "district": "강동구",
    "center_name": "아름다운행복한홈스쿨지역아동센터",
    "address": "서울 강동구 상암로47길 80-7, 2층 (명일동)",
    "phone": "02-3427-4415",
    "capacity": 29,
    "lat": 37.5504,
    "lon": 127.14488,
    "zipcode": "05292",
    "fee": 0,
    "sat_yn": "N"
  },
  {
    "district": "강동구",
    "center_name": "암사꿈나무지역아동센터",
    "address": "서울 강동구 상암로 87-1, 2층 (암사동)",
    "phone": "02-426-0081",
    "capacity": 36,
    "lat": 37.54794,
    "lon": 127.13298,
    "zipcode": "05265",
    "fee": 0,
    "sat_yn": "Y"
  },
  {
    "district": "강동구",
    "center_name": "암사지역아동센터",
    "address": "서울 강동구 고덕로27길 27, 2층 (암사동)",
    "phone": "02-481-9711",
    "capacity": 32,
    "lat": 37.55602,
    "lon": 127.13775,
    "zipcode": "05237",
    "fee": 0,
    "sat_yn": "Y"
  },
  {
    "district": "강동구",
    "center_name": "오륜레인보우지역아동센터",
    "address": "서울 강동구 강동대로53길 73, 2층 (성내동)",
    "phone": "070-7864-5994",
    "capacity": 35,
    "lat": 37.52608,
    "lon": 127.1325,
    "zipcode": "05406",
    "fee": 0,
    "sat_yn": "N"
  },
  {
    "district": "강동구",
    "center_name": "제일강동지역아동센터",
    "address": "서울 강동구 양재대로128길 53, 상가 301호 (길동, 삼익파크)",
    "phone": "02-470-7542",
    "capacity": 35,
    "lat": 37.54465,
    "lon": 127.14585,
    "zipcode": "05298",
    "fee": 0,
    "sat_yn": "N"
  },
  {
    "district": "강동구",
    "center_name": "천호지역아동센터",
    "address": "서울 강동구 구천면로 260, 2층 (천호동)",
    "phone": "02-6408-0826",
    "capacity": 25,
    "lat": 37.54341,
    "lon": 127.13211,
    "zipcode": "05330",
    "fee": 0,
    "sat_yn": "N"
  },
  {
    "district": "강북구",
    "center_name": "희망의집지역아동센터",
    "address": "서울 강북구 덕릉로 28, 4층 (수유동)",
    "phone": "02-981-4422",
    "capacity": 40,
    "lat": 37.63395,
    "lon": 127.0167,
    "zipcode": "01098",
    "fee": 0,
    "sat_yn": "N"
  },
  {
    "district": "강북구",
    "center_name": "독립문지역아동센터",
    "address": "서울 강북구 덕릉로40길 14, 3층 (번동)",
    "phone": "02-994-3152",
    "capacity": 19,
    "lat": 37.63449,
    "lon": 127.03027,
    "zipcode": "01134",
    "fee": 0,
    "sat_yn": "N"
  },
  {
    "district": "강북구",
    "center_name": "꾸러기지역아동센터",
    "address": "서울 강북구 도봉로28나길 7, 1층 (미아동, 한빛교회)",
    "phone": "070-8833-7721",
    "capacity": 19,
    "lat": 37.62067,
    "lon": 127.03166,
    "zipcode": "01163",
    "fee": 0,
    "sat_yn": "N"
  },
  {
    "district": "강북구",
    "center_name": "강북구공립지역아동센터",
    "address": "서울 강북구 도봉로96다길 15 (번동)",
    "phone": "02-900-1987",
    "capacity": 29,
    "lat": 37.63981509,
    "lon": 127.0328407,
    "zipcode": "01060",
    "fee": 0,
    "sat_yn": "N"
  },
  {
    "district": "강북구",
    "center_name": "산지역아동센터",
    "address": "서울 강북구 삼각산로 134, 3층 (수유동)",
    "phone": "02-905-8432",
    "capacity": 19,
    "lat": 37.64085,
    "lon": 127.01926,
    "zipcode": "01075",
    "fee": 0,
    "sat_yn": "N"
  },
  {
    "district": "강북구",
    "center_name": "나욧지역아동센터",
    "address": "서울 강북구 삼각산로 157, 2층 (수유동)",
    "phone": "02-994-1318",
    "capacity": 39,
    "lat": 37.64192,
    "lon": 127.02122,
    "zipcode": "01043",
    "fee": 0,
    "sat_yn": "N"
  },
  {
    "district": "강북구",
    "center_name": "하늘씨앗지역아동센터",
    "address": "서울 강북구 삼양로 246, 3층 (미아동)",
    "phone": "02-981-7891",
    "capacity": 19,
    "lat": 37.62543,
    "lon": 127.01868,
    "zipcode": "01127",
    "fee": 0,
    "sat_yn": "N"
  },
  {
    "district": "강북구",
    "center_name": "으뜸지역아동센터",
    "address": "서울 강북구 삼양로 487, 2층 (수유동)",
    "phone": "02-918-0865",
    "capacity": 30,
    "lat": 37.64658,
    "lon": 127.01478,
    "zipcode": "01029",
    "fee": 0,
    "sat_yn": "N"
  },
  {
    "district": "강북구",
    "center_name": "서라벌아카데미지역아동센터",
    "address": "서울 강북구 삼양로 617, 3층 (우이동)",
    "phone": "02-998-5621",
    "capacity": 29,
    "lat": 37.65807,
    "lon": 127.01351,
    "zipcode": "01005",
    "fee": 0,
    "sat_yn": "N"
  },
  {
    "district": "강북구",
    "center_name": "강북지역아동센터",
    "address": "서울 강북구 삼양로118길 27, 3층 (수유동, 주님의 교회)",
    "phone": "02-6435-1747",
    "capacity": 19,
    "lat": 37.64426,
    "lon": 127.01759,
    "zipcode": "01040",
    "fee": 0,
    "sat_yn": "N"
  },
  {
    "district": "강북구",
    "center_name": "마을속작은학교지역아동센터",
    "address": "서울 강북구 삼양로118길 33, 4층 (수유동)",
    "phone": "02-903-6678",
    "capacity": 19,
    "lat": 37.64425,
    "lon": 127.01805,
    "zipcode": "01040",
    "fee": 0,
    "sat_yn": "N"
  },
  {
    "district": "강북구",
    "center_name": "송천동지역아동센터",
    "address": "서울 강북구 삼양로20길 53, 2층 (미아동)",
    "phone": "02-984-2237",
    "capacity": 31,
    "lat": 37.61515,
    "lon": 127.02509,
    "zipcode": "01208",
    "fee": 0,
    "sat_yn": "N"
  },
  {
    "district": "강북구",
    "center_name": "돌산공부방지역아동센터",
    "address": "서울 강북구 솔샘로 272, 3층 (미아동)",
    "phone": "02-986-2882",
    "capacity": 19,
    "lat": 37.61885,
    "lon": 127.02267,
    "zipcode": "01201",
    "fee": 0,
    "sat_yn": "N"
  },
  {
    "district": "강북구",
    "center_name": "송중동지역아동센터",
    "address": "서울 강북구 오패산로31길 14 (미아동)",
    "phone": "02-988-1255",
    "capacity": 33,
    "lat": 37.61382,
    "lon": 127.03324,
    "zipcode": "01218",
    "fee": 0,
    "sat_yn": "N"
  },
  {
    "district": "강북구",
    "center_name": "동산비젼스쿨지역아동센터",
    "address": "서울 강북구 오현로 10, 3층 (미아동)",
    "phone": "02-945-5240",
    "capacity": 25,
    "lat": 37.61635,
    "lon": 127.03119,
    "zipcode": "01216",
    "fee": 0,
    "sat_yn": "N"
  },
  {
    "district": "강북구",
    "center_name": "아름다운땅지역아동센터",
    "address": "서울 강북구 오현로 194, 3층 (번동, 덕수빌딩)",
    "phone": "02-986-9090",
    "capacity": 29,
    "lat": 37.62884,
    "lon": 127.03989,
    "zipcode": "01224",
    "fee": 0,
    "sat_yn": "N"
  },
  {
    "district": "강북구",
    "center_name": "우리지역아동센터",
    "address": "서울 강북구 오현로 31길 21, 2층 (번동)",
    "phone": "02-980-6625",
    "capacity": 25,
    "lat": 37.62961,
    "lon": 127.03877,
    "zipcode": "01143",
    "fee": 0,
    "sat_yn": "N"
  },
  {
    "district": "강북구",
    "center_name": "늘품지역아동센터",
    "address": "서울 강북구 인수봉로77길 7, 1~2층",
    "phone": "02-6487-7942",
    "capacity": 35,
    "lat": 37.64431,
    "lon": 127.0103,
    "zipcode": "01015",
    "fee": 0,
    "sat_yn": "N"
  },
  {
    "district": "강북구",
    "center_name": "삼동지역아동센터",
    "address": "서울 강북구 한천로105길 24, 201동 212호 (번동, 번동2단지주공아파트)",
    "phone": "02-984-3886",
    "capacity": 19,
    "lat": 37.6265,
    "lon": 127.0468,
    "zipcode": "01229",
    "fee": 0,
    "sat_yn": "N"
  },
  {
    "district": "강북구",
    "center_name": "사랑의공부방지역아동센터",
    "address": "서울 강북구 한천로105길 33, 유치원상가 3층 (번동, 번동1단지주공아파트)",
    "phone": "02-987-4988",
    "capacity": 19,
    "lat": 37.62553,
    "lon": 127.04586,
    "zipcode": "01230",
    "fee": 0,
    "sat_yn": "N"
  },
  {
    "district": "강서구",
    "center_name": "좋은친구지역아동센터",
    "address": "서울 강서구 가로공원로 237, 2층 (화곡동)",
    "phone": "02-2065-0369",
    "capacity": 25,
    "lat": 37.53867,
    "lon": 126.84195,
    "zipcode": "07720",
    "fee": 0,
    "sat_yn": "Y"
  },
  {
    "district": "강서구",
    "center_name": "발음지역아동센터",
    "address": "서울 강서구 강서로47다길 41, 1층 (내발산동)",
    "phone": "02-2663-1373",
    "capacity": 35,
    "lat": 37.55092,
    "lon": 126.83419,
    "zipcode": "07638",
    "fee": 0,
    "sat_yn": "N"
  },
  {
    "district": "강서구",
    "center_name": "함께꿈꾸는지역아동센터",
    "address": "서울 강서구 강서로56길 96, 3층 (등촌3동, 재단빌딩)",
    "phone": "02-2658-0734",
    "capacity": 25,
    "lat": 37.55894,
    "lon": 126.84405,
    "zipcode": "07591",
    "fee": 0,
    "sat_yn": "N"
  },
  {
    "district": "강서구",
    "center_name": "큰미래지역아동센터",
    "address": "서울 강서구 공항대로 3길 36, 2층 (공항동)",
    "phone": "02-6487-8292",
    "capacity": 25,
    "lat": 37.56308,
    "lon": 126.8106,
    "zipcode": "07619",
    "fee": 0,
    "sat_yn": "Y"
  },
  {
    "district": "강서구",
    "center_name": "한길지역아동센터",
    "address": "서울 강서구 공항대로65길 21, 상가 1층 (염창동, 롯데캐슬아파트)",
    "phone": "02-3665-8733",
    "capacity": 19,
    "lat": 37.55117458,
    "lon": 126.8681545,
    "zipcode": "07561",
    "fee": 0,
    "sat_yn": "N"
  },
  {
    "district": "강서구",
    "center_name": "람원행복한홈스쿨지역아동센터",
    "address": "서울 강서구 까치산로 160-5, 1층 (화곡6동)",
    "phone": "02-2065-0693",
    "capacity": 29,
    "lat": 37.55157,
    "lon": 126.853,
    "zipcode": "07656",
    "fee": 0,
    "sat_yn": "N"
  },
  {
    "district": "강서구",
    "center_name": "화곡지역아동센터",
    "address": "서울 강서구 등촌로5길 79, 3층 (화곡동)",
    "phone": "02-2651-1353",
    "capacity": 39,
    "lat": 37.53274,
    "lon": 126.8591,
    "zipcode": "07738",
    "fee": 0,
    "sat_yn": "Y"
  },
  {
    "district": "강서구",
    "center_name": "소은지역아동센터",
    "address": "서울 강서구 방화대로6나길 17, 2층 (공항동)",
    "phone": "070-4062-7647",
    "capacity": 19,
    "lat": 37.55578,
    "lon": 126.81681,
    "zipcode": "07645",
    "fee": 0,
    "sat_yn": "N"
  },
  {
    "district": "강서구",
    "center_name": "강서누리지역아동센터",
    "address": "서울 강서구 송정로 32, 2층 (공항동)",
    "phone": "02-2661-7179",
    "capacity": 25,
    "lat": 37.55785,
    "lon": 126.81149,
    "zipcode": "07626",
    "fee": 0,
    "sat_yn": "N"
  },
  {
    "district": "강서구",
    "center_name": "솔로몬지역아동센터",
    "address": "서울 강서구 양천로1길 106, 2층 (방화동)",
    "phone": "02-2664-6954",
    "capacity": 19,
    "lat": 37.57438,
    "lon": 126.80952,
    "zipcode": "07516",
    "fee": 0,
    "sat_yn": "N"
  },
  {
    "district": "강서구",
    "center_name": "성광행복한지역아동센터",
    "address": "서울 강서구 양천로26길 103, 상가 202호 (방화동, 마곡청구아파트)",
    "phone": "02-2666-0340",
    "capacity": 25,
    "lat": 37.57298,
    "lon": 126.82205,
    "zipcode": "07593",
    "fee": 0,
    "sat_yn": "N"
  },
  {
    "district": "강서구",
    "center_name": "방화지역아동센터",
    "address": "서울 강서구 양천로6길 28, 상가 301호 (방화동, 방화12단지아파트)",
    "phone": "02-2662-6277",
    "capacity": 39,
    "lat": 37.57103,
    "lon": 126.80666,
    "zipcode": "07611",
    "fee": 0,
    "sat_yn": "N"
  },
  {
    "district": "강서구",
    "center_name": "위캔지역아동센터",
    "address": "서울 강서구 초록마을로 52-1, 2층 (화곡동)",
    "phone": "02-2690-0157",
    "capacity": 26,
    "lat": 37.54235,
    "lon": 126.84863,
    "zipcode": "07723",
    "fee": 0,
    "sat_yn": "N"
  },
  {
    "district": "강서구",
    "center_name": "열린지역아동센터",
    "address": "서울 강서구 초록마을로22길 8-5 (화곡동, 전인학원)",
    "phone": "02-2607-7374",
    "capacity": 34,
    "lat": 37.54016,
    "lon": 126.85068,
    "zipcode": "07724",
    "fee": 0,
    "sat_yn": "Y"
  },
  {
    "district": "강서구",
    "center_name": "새하늘지역아동센터",
    "address": "서울 강서구 화곡로24길 16, 1층 (화곡동)",
    "phone": "02-2608-2538",
    "capacity": 19,
    "lat": 37.54021,
    "lon": 126.83826,
    "zipcode": "07717",
    "fee": 0,
    "sat_yn": "N"
  },
  {
    "district": "강서구",
    "center_name": "좋은사람들지역아동센터",
    "address": "서울 강서구 화곡로31길 39, 2층 (화곡동)",
    "phone": "02-2604-5550",
    "capacity": 21,
    "lat": 37.54444,
    "lon": 126.84127,
    "zipcode": "07700",
    "fee": 0,
    "sat_yn": "N"
  },
  {
    "district": "강서구",
    "center_name": "경향지역아동센터",
    "address": "서울 강서구 화곡로63길 19, 교육관 3층 (등촌동, 경향교회)",
    "phone": "02-3664-1516",
    "capacity": 23,
    "lat": 37.55719,
    "lon": 126.8517,
    "zipcode": "07590",
    "fee": 0,
    "sat_yn": "N"
  },
  {
    "district": "관악구",
    "center_name": "해성지역아동센터",
    "address": "서울 관악구 관악로 287, 상가 306호 (봉천동)",
    "phone": "02-872-8591",
    "capacity": 35,
    "lat": 37.48939493,
    "lon": 126.9569465,
    "zipcode": "08726",
    "fee": 0,
    "sat_yn": "Y"
  },
  {
    "district": "관악구",
    "center_name": "비전교실지역아동센터",
    "address": "서울 관악구 관악로30길 40, 제2상가 3층 (봉천동)",
    "phone": "02-882-7204",
    "capacity": 37,
    "lat": 37.48511728,
    "lon": 126.9615854,
    "zipcode": "08735",
    "fee": 0,
    "sat_yn": "N"
  },
  {
    "district": "관악구",
    "center_name": "은천지역아동센터",
    "address": "서울 관악구 관천로 119, 2층 (신림동)",
    "phone": "02-839-1405",
    "capacity": 40,
    "lat": 37.48836714,
    "lon": 126.9209991,
    "zipcode": "08703",
    "fee": 0,
    "sat_yn": "N"
  },
  {
    "district": "관악구",
    "center_name": "새숲지역아동센터",
    "address": "서울 관악구 광신길 160, 101동 106호 (신림동)",
    "phone": "02-884-3572",
    "capacity": 19,
    "lat": 37.46603288,
    "lon": 126.9273956,
    "zipcode": "08848",
    "fee": 0,
    "sat_yn": "N"
  },
  {
    "district": "관악구",
    "center_name": "드림한누리지역아동센터",
    "address": "서울 관악구 구암길 106, 관리사무소 3층 (봉천동)",
    "phone": "02-888-1598",
    "capacity": 19,
    "lat": 37.49127941,
    "lon": 126.9486646,
    "zipcode": "08725",
    "fee": 0,
    "sat_yn": "N"
  },
  {
    "district": "관악구",
    "center_name": "한우리지역아동센터",
    "address": "서울 관악구 낙성대역14가길 7, 교육관 2층 (봉천동)",
    "phone": "02-884-1026",
    "capacity": 45,
    "lat": 37.47329411,
    "lon": 126.9643356,
    "zipcode": "08797",
    "fee": 0,
    "sat_yn": "N"
  },
  {
    "district": "관악구",
    "center_name": "물댄동산난곡지역아동센터",
    "address": "서울 관악구 난곡로 263, 3층 (신림동)",
    "phone": "02-858-2486",
    "capacity": 35,
    "lat": 37.47752575,
    "lon": 126.9151426,
    "zipcode": "08864",
    "fee": 0,
    "sat_yn": "Y"
  },
  {
    "district": "관악구",
    "center_name": "아담스지역아동센터",
    "address": "서울 관악구 난곡로20길 17, 3층 (신림동)",
    "phone": "02-830-0374",
    "capacity": 19,
    "lat": 37.46864136,
    "lon": 126.9211552,
    "zipcode": "08857",
    "fee": 0,
    "sat_yn": "N"
  },
  {
    "district": "관악구",
    "center_name": "민영지역아동센터",
    "address": "서울 관악구 난우10길 7, 3층 (신림동)",
    "phone": "02-830-7355",
    "capacity": 40,
    "lat": 37.47625223,
    "lon": 126.9181567,
    "zipcode": "08850",
    "fee": 0,
    "sat_yn": "N"
  },
  {
    "district": "관악구",
    "center_name": "참좋은지역아동센터",
    "address": "서울 관악구 난우길 41, 2층 (신림동)",
    "phone": "02-857-7355",
    "capacity": 34,
    "lat": 37.47617875,
    "lon": 126.9171784,
    "zipcode": "08849",
    "fee": 0,
    "sat_yn": "N"
  },
  {
    "district": "관악구",
    "center_name": "꿈나무공부방지역아동센터",
    "address": "서울 관악구 난향12길 26 (신림동)",
    "phone": "02-868-3117",
    "capacity": 37,
    "lat": 37.46369102,
    "lon": 126.9164229,
    "zipcode": "08859",
    "fee": 0,
    "sat_yn": "N"
  },
  {
    "district": "관악구",
    "center_name": "난향지역아동센터",
    "address": "서울 관악구 난향7길 2, 3층 (난향동)",
    "phone": "070-7721-9414",
    "capacity": 27,
    "lat": 37.46246566,
    "lon": 126.9159297,
    "zipcode": "08859",
    "fee": 0,
    "sat_yn": "Y"
  },
  {
    "district": "관악구",
    "center_name": "우리들의공부방지역아동센터",
    "address": "서울 관악구 남부순환로 1535, 2층 (신림동)",
    "phone": "02-884-8093",
    "capacity": 40,
    "lat": 37.48333705,
    "lon": 126.9210836,
    "zipcode": "08762",
    "fee": 0,
    "sat_yn": "N"
  },
  {
    "district": "관악구",
    "center_name": "양지지역아동센터",
    "address": "서울 관악구 남부순환로 1682, 3층",
    "phone": "02-877-6130",
    "capacity": 35,
    "lat": 37.48391704,
    "lon": 126.9388891,
    "zipcode": "08780",
    "fee": 0,
    "sat_yn": "Y"
  },
  {
    "district": "관악구",
    "center_name": "청솔지역아동센터",
    "address": "서울 관악구 남부순환로161가길 71, 2층",
    "phone": "02-857-5599",
    "capacity": 19,
    "lat": 37.48440753,
    "lon": 126.9148449,
    "zipcode": "08762",
    "fee": 0,
    "sat_yn": "N"
  },
  {
    "district": "관악구",
    "center_name": "보라매지역아동센터",
    "address": "서울 관악구 당곡길 36, 401호 (봉천동)",
    "phone": "02-889-0247",
    "capacity": 35,
    "lat": 37.49092103,
    "lon": 126.9289101,
    "zipcode": "08710",
    "fee": 0,
    "sat_yn": "Y"
  },
  {
    "district": "관악구",
    "center_name": "민들레샘물지역아동센터",
    "address": "서울 관악구 대학20길 27, 103동 103호 (신림동)",
    "phone": "070-8751-3275",
    "capacity": 19,
    "lat": 37.4643054,
    "lon": 126.9373716,
    "zipcode": "08824",
    "fee": 0,
    "sat_yn": "Y"
  },
  {
    "district": "관악구",
    "center_name": "관악청소년지역아동센터",
    "address": "서울 관악구 미성길60, 201호 (신림동, 두영상가)",
    "phone": "02-859-6357",
    "capacity": 29,
    "lat": 37.48041042,
    "lon": 126.9110952,
    "zipcode": "08865",
    "fee": 0,
    "sat_yn": "Y"
  },
  {
    "district": "관악구",
    "center_name": "행복한지역아동센터",
    "address": "서울 관악구 법원단지13길 22 (신림동)",
    "phone": "02-6397-8961",
    "capacity": 29,
    "lat": 37.47498656,
    "lon": 126.9207636,
    "zipcode": "08852",
    "fee": 0,
    "sat_yn": "Y"
  },
  {
    "district": "관악구",
    "center_name": "섬김의집지역아동센터",
    "address": "서울 관악구 신림로 124, 2층 (신림동)",
    "phone": "02-871-5425",
    "capacity": 35,
    "lat": 37.46636553,
    "lon": 126.9302371,
    "zipcode": "08839",
    "fee": 0,
    "sat_yn": "N"
  },
  {
    "district": "관악구",
    "center_name": "하늘지역아동센터",
    "address": "서울 관악구 신림로 171, 201호 (신림동)",
    "phone": "02-875-1114",
    "capacity": 29,
    "lat": 37.4744034,
    "lon": 126.934073,
    "zipcode": "08845",
    "fee": 0,
    "sat_yn": "N"
  },
  {
    "district": "관악구",
    "center_name": "꿈둥지지역아동센터",
    "address": "서울 관악구 쑥고개로 71, 2층 (봉천동)",
    "phone": "02-888-9045",
    "capacity": 37,
    "lat": 37.47962401,
    "lon": 126.9443704,
    "zipcode": "08785",
    "fee": 0,
    "sat_yn": "N"
  },
  {
    "district": "관악구",
    "center_name": "열린지역아동센터",
    "address": "서울 관악구 양녕로 31, 관리사무소 3층 (봉천동)",
    "phone": "02-3285-3580",
    "capacity": 35,
    "lat": 37.48515235,
    "lon": 126.9457794,
    "zipcode": "08751",
    "fee": 0,
    "sat_yn": "N"
  },
  {
    "district": "관악구",
    "center_name": "꿈마을지역아동센터",
    "address": "서울 관악구 양녕로 42, 2층 (봉천동)",
    "phone": "02-871-4905",
    "capacity": 36,
    "lat": 37.48578879,
    "lon": 126.9470873,
    "zipcode": "08747",
    "fee": 0,
    "sat_yn": "N"
  },
  {
    "district": "관악구",
    "center_name": "조원지역아동센터",
    "address": "서울 관악구 조원중앙로2길 71 (신림동)",
    "phone": "02-838-9031",
    "capacity": 19,
    "lat": 37.48154137,
    "lon": 126.9087317,
    "zipcode": "08766",
    "fee": 0,
    "sat_yn": "Y"
  },
  {
    "district": "관악구",
    "center_name": "광동지역아동센터",
    "address": "서울 관악구 행운2길 31, 교육관 2층 (봉천동)",
    "phone": "02-875-8555",
    "capacity": 29,
    "lat": 37.47921452,
    "lon": 126.9608038,
    "zipcode": "08742",
    "fee": 0,
    "sat_yn": "N"
  },
  {
    "district": "광진구",
    "center_name": "행복한지역아동센터",
    "address": "서울 광진구 광나루로37길 43 (구의동)",
    "phone": "02-454-8891",
    "capacity": 26,
    "lat": 37.5465957,
    "lon": 127.0887757,
    "zipcode": "04976",
    "fee": 0,
    "sat_yn": "N"
  },
  {
    "district": "광진구",
    "center_name": "희망샘지역아동센터",
    "address": "서울 광진구 긴고랑로 137, 1층 (중곡동)",
    "phone": "070-4138-0060",
    "capacity": 29,
    "lat": 37.5590183,
    "lon": 127.0902758,
    "zipcode": "04944",
    "fee": 0,
    "sat_yn": "N"
  },
  {
    "district": "광진구",
    "center_name": "경희지역아동센터",
    "address": "서울 광진구 긴고랑로7길 54 (중곡동)",
    "phone": "02-463-7032",
    "capacity": 29,
    "lat": 37.5656584,
    "lon": 127.0804219,
    "zipcode": "04907",
    "fee": 0,
    "sat_yn": "N"
  },
  {
    "district": "광진구",
    "center_name": "한사랑지역아동센터",
    "address": "서울 광진구 동일로 282, 3층 (군자동)",
    "phone": "02-499-0971",
    "capacity": 29,
    "lat": 37.5550907,
    "lon": 127.0726711,
    "zipcode": "04995",
    "fee": 0,
    "sat_yn": "Y"
  },
  {
    "district": "광진구",
    "center_name": "신양하늘꿈지역아동센터",
    "address": "서울 광진구 동일로 44-10, 2층 (자양동)",
    "phone": "02-463-4114",
    "capacity": 33,
    "lat": 37.5364204,
    "lon": 127.0614142,
    "zipcode": "05081",
    "fee": 0,
    "sat_yn": "N"
  },
  {
    "district": "광진구",
    "center_name": "새빛지역아동센터",
    "address": "서울 광진구 아차산로 330, 1층 (자양동)",
    "phone": "02-3436-6852",
    "capacity": 35,
    "lat": 37.5372369,
    "lon": 127.079412,
    "zipcode": "05054",
    "fee": 0,
    "sat_yn": "Y"
  },
  {
    "district": "광진구",
    "center_name": "새날지역아동센터",
    "address": "서울 광진구 아차산로26길 22, 2층 (자양동)",
    "phone": "02-498-0404",
    "capacity": 49,
    "lat": 37.540443,
    "lon": 127.065546,
    "zipcode": "05072",
    "fee": 0,
    "sat_yn": "Y"
  },
  {
    "district": "광진구",
    "center_name": "꿈나래지역아동센터",
    "address": "서울 광진구 영화사로 9, 3층 (중곡동)",
    "phone": "02-494-1898",
    "capacity": 29,
    "lat": 37.5582613,
    "lon": 127.0887356,
    "zipcode": "04945",
    "fee": 0,
    "sat_yn": "N"
  },
  {
    "district": "광진구",
    "center_name": "진성지역아동센터",
    "address": "서울 광진구 용마산로26길 10 (중곡동, 진성교회)",
    "phone": "02-3437-7293",
    "capacity": 29,
    "lat": 37.5671157,
    "lon": 127.0869694,
    "zipcode": "04940",
    "fee": 0,
    "sat_yn": "N"
  },
  {
    "district": "광진구",
    "center_name": "새움터지역아동센터",
    "address": "서울 광진구 자양로 71-7, 3층 (자양동, 희년의집)",
    "phone": "02-458-1813",
    "capacity": 19,
    "lat": 37.5340883,
    "lon": 127.0838816,
    "zipcode": "05056",
    "fee": 0,
    "sat_yn": "N"
  },
  {
    "district": "광진구",
    "center_name": "어린이나라지역아동센터",
    "address": "서울 광진구 자양로22길 58, 2층 (구의1동)",
    "phone": "02-446-5642",
    "capacity": 33,
    "lat": 37.5396185,
    "lon": 127.0864968,
    "zipcode": "05042",
    "fee": 0,
    "sat_yn": "N"
  },
  {
    "district": "광진구",
    "center_name": "중곡지역아동센터",
    "address": "서울 광진구 자양로53길 69, 3층 (중곡동)",
    "phone": "02-457-7179",
    "capacity": 29,
    "lat": 37.55587086,
    "lon": 127.0908057,
    "zipcode": "04951",
    "fee": 0,
    "sat_yn": "N"
  },
  {
    "district": "광진구",
    "center_name": "해피엘지역아동센터",
    "address": "서울 광진구 자양번영로 16, 2층 (자양동)",
    "phone": "070-7734-2118",
    "capacity": 29,
    "lat": 37.5309681,
    "lon": 127.0752338,
    "zipcode": "05098",
    "fee": 0,
    "sat_yn": "N"
  },
  {
    "district": "구로구",
    "center_name": "구로푸른학교지역아동센터",
    "address": "서울 구로구 가마산로23길 27, 2층 (구로동)",
    "phone": "02-866-0615",
    "capacity": 27,
    "lat": 37.49662399,
    "lon": 126.8884047,
    "zipcode": "08301",
    "fee": 0,
    "sat_yn": "N"
  },
  {
    "district": "구로구",
    "center_name": "하모니지역아동센터",
    "address": "서울 구로구 개봉로11길 28-15, 1층 (개봉동, 신생교회)",
    "phone": "02-2618-4483",
    "capacity": 22,
    "lat": 37.48873171,
    "lon": 126.8543141,
    "zipcode": "08348",
    "fee": 0,
    "sat_yn": "Y"
  },
  {
    "district": "구로구",
    "center_name": "영문지역아동센터",
    "address": "서울 구로구 개봉로11길 35-9, 301호 (개봉동, 영문교회)",
    "phone": "02-2614-9674",
    "capacity": 35,
    "lat": 37.48753576,
    "lon": 126.8542006,
    "zipcode": "08352",
    "fee": 0,
    "sat_yn": "N"
  },
  {
    "district": "구로구",
    "center_name": "꿈의학교지역아동센터",
    "address": "서울 구로구 개봉로12길 9-30, 2층 (개봉동)",
    "phone": "02-2615-9062",
    "capacity": 32,
    "lat": 37.48953574,
    "lon": 126.8570212,
    "zipcode": "08333",
    "fee": 0,
    "sat_yn": "Y"
  },
  {
    "district": "구로구",
    "center_name": "구로행복한지역아동센터",
    "address": "서울 구로구 개봉로15길 42, 2층 (개봉동)",
    "phone": "02-2615-9064",
    "capacity": 33,
    "lat": 37.48991022,
    "lon": 126.8536485,
    "zipcode": "08346",
    "fee": 0,
    "sat_yn": "N"
  },
  {
    "district": "구로구",
    "center_name": "섬기는지역아동센터",
    "address": "서울 구로구 개봉로17아길 51-12 (개봉동, 사랑과섬김교회)",
    "phone": "070-7806-1414",
    "capacity": 34,
    "lat": 37.49392857,
    "lon": 126.8502298,
    "zipcode": "08339",
    "fee": 0,
    "sat_yn": "N"
  },
  {
    "district": "구로구",
    "center_name": "푸르미지역아동센터",
    "address": "서울 구로구 경서로 47, 5층 (고척동, 고척1동새마을금고회관)",
    "phone": "02-816-1515",
    "capacity": 33,
    "lat": 37.50149371,
    "lon": 126.8585145,
    "zipcode": "08232",
    "fee": 0,
    "sat_yn": "N"
  },
  {
    "district": "구로구",
    "center_name": "함사람지역아동센터",
    "address": "서울 구로구 경서로 82-14, 303호 (고척동)",
    "phone": "02-2681-8114",
    "capacity": 19,
    "lat": 37.50353289,
    "lon": 126.8613448,
    "zipcode": "08224",
    "fee": 0,
    "sat_yn": "Y"
  },
  {
    "district": "구로구",
    "center_name": "해피지역아동센터",
    "address": "서울 구로구 고척로 19, 303호 (오류동, 한백고은아파트)",
    "phone": "02-6369-2556",
    "capacity": 25,
    "lat": 37.49642443,
    "lon": 126.839718,
    "zipcode": "08254",
    "fee": 0,
    "sat_yn": "N"
  },
  {
    "district": "구로구",
    "center_name": "메리워드지역아동센터",
    "address": "서울 구로구 고척로 49, 210동 상가 3층 (오류동, 동부골든아파트)",
    "phone": "02-2618-6530",
    "capacity": 19,
    "lat": 37.50000726,
    "lon": 126.841369,
    "zipcode": "08253",
    "fee": 0,
    "sat_yn": "N"
  },
  {
    "district": "구로구",
    "center_name": "그루터기배움터지역아동센터",
    "address": "서울 구로구 고척로21나길 17, 3층 (개봉동, 현대빌딩)",
    "phone": "02-6738-6747",
    "capacity": 40,
    "lat": 37.50268658,
    "lon": 126.8447603,
    "zipcode": "08251",
    "fee": 0,
    "sat_yn": "N"
  },
  {
    "district": "구로구",
    "center_name": "은혜지역아동센터",
    "address": "서울 구로구 고척로52길 9, 상가 201호 (고척동, 양우아파트)",
    "phone": "02-2681-8946",
    "capacity": 32,
    "lat": 37.50497202,
    "lon": 126.8565519,
    "zipcode": "08228",
    "fee": 0,
    "sat_yn": "N"
  },
  {
    "district": "구로구",
    "center_name": "금강지역아동센터",
    "address": "서울 구로구 고척로52길 98, 2층 (개봉동)",
    "phone": "02-6339-3675",
    "capacity": 25,
    "lat": 37.50078398,
    "lon": 126.8556049,
    "zipcode": "08233",
    "fee": 0,
    "sat_yn": "N"
  },
  {
    "district": "구로구",
    "center_name": "꿈나래지역아동센터",
    "address": "서울 구로구 고척로6길 29, 3층 (오류동)",
    "phone": "02-3666-0102",
    "capacity": 33,
    "lat": 37.4969978,
    "lon": 126.840627,
    "zipcode": "08269",
    "fee": 0,
    "sat_yn": "Y"
  },
  {
    "district": "구로구",
    "center_name": "구로파랑새나눔터공부방지역아동센터",
    "address": "서울 구로구 구로동로38길 32, 3층 (구로동)",
    "phone": "02-838-5679",
    "capacity": 37,
    "lat": 37.49481925,
    "lon": 126.8846247,
    "zipcode": "08285",
    "fee": 0,
    "sat_yn": "Y"
  },
  {
    "district": "구로구",
    "center_name": "누리지역아동센터",
    "address": "서울 구로구 구로동로8길 31, 4층 (구로동)",
    "phone": "02-866-3157",
    "capacity": 25,
    "lat": 37.48725884,
    "lon": 126.8864234,
    "zipcode": "08319",
    "fee": 0,
    "sat_yn": "N"
  },
  {
    "district": "구로구",
    "center_name": "한사랑지역아동센터",
    "address": "서울 구로구 구로동로8길 56 (구로동, 한사랑교회)",
    "phone": "02-858-7988",
    "capacity": 30,
    "lat": 37.48810135,
    "lon": 126.8871565,
    "zipcode": "08314",
    "fee": 0,
    "sat_yn": "Y"
  },
  {
    "district": "구로구",
    "center_name": "메이지역아동센터",
    "address": "서울 구로구 구로중앙로18길 68, 3동 105호 (구로동, 신구로현대아파트)",
    "phone": "02-855-8808",
    "capacity": 19,
    "lat": 37.49689827,
    "lon": 126.892606,
    "zipcode": "08303",
    "fee": 0,
    "sat_yn": "N"
  },
  {
    "district": "구로구",
    "center_name": "지구촌지역아동센터",
    "address": "서울 구로구 남부순환로 1291, B동 201호 (가리봉동, 영진오피스)",
    "phone": "02-865-2006",
    "capacity": 34,
    "lat": 37.47888923,
    "lon": 126.8943284,
    "zipcode": "08395",
    "fee": 0,
    "sat_yn": "N"
  },
  {
    "district": "구로구",
    "center_name": "구로지역아동센터",
    "address": "서울 구로구 도림로 4-3, 3층 (구로동)",
    "phone": "02-837-4395",
    "capacity": 19,
    "lat": 37.48514285,
    "lon": 126.8868332,
    "zipcode": "08374",
    "fee": 0,
    "sat_yn": "N"
  },
  {
    "district": "구로구",
    "center_name": "새솜지역아동센터",
    "address": "서울 구로구 새말로16길 70, 상가 401호 (구로동, 다솜금호아파트)",
    "phone": "02-865-8428",
    "capacity": 19,
    "lat": 37.50286612,
    "lon": 126.8919466,
    "zipcode": "08296",
    "fee": 0,
    "sat_yn": "N"
  },
  {
    "district": "구로구",
    "center_name": "라이프칠드런지역아동센터",
    "address": "서울 구로구 연동로13길 7, 2층 (항동)",
    "phone": "02-2688-9199",
    "capacity": 25,
    "lat": 37.4840439336,
    "lon": 126.8216736,
    "zipcode": "08360",
    "fee": 0,
    "sat_yn": "N"
  },
  {
    "district": "구로구",
    "center_name": "우신지역아동센터",
    "address": "서울 구로구 오리로 1265, 우신상가304호",
    "phone": "02-2611-8041",
    "capacity": 29,
    "lat": 37.49467146,
    "lon": 126.8300624,
    "zipcode": "08257",
    "fee": 0,
    "sat_yn": "N"
  },
  {
    "district": "구로구",
    "center_name": "지역아동센터 평화만들기",
    "address": "서울 구로구 오리로20길 32, 2층 (수궁동, 평화의 교회)",
    "phone": "02-2613-9895",
    "capacity": 32,
    "lat": 37.4974775,
    "lon": 126.8312817,
    "zipcode": "08249",
    "fee": 0,
    "sat_yn": "N"
  },
  {
    "district": "구로구",
    "center_name": "고척재미난지역아동센터",
    "address": "서울 구로구 중앙로 79, 3층",
    "phone": "02-2686-5884",
    "capacity": 19,
    "lat": 37.50444398,
    "lon": 126.8608834,
    "zipcode": "08228",
    "fee": 0,
    "sat_yn": "N"
  },
  {
    "district": "구로구",
    "center_name": "구로구공립지역아동센터",
    "address": "서울 구로구 천왕로 32, 306~307호 (천왕동, 천왕에이스프라자)",
    "phone": "02-2615-9060",
    "capacity": 34,
    "lat": 37.48058059,
    "lon": 126.8397853,
    "zipcode": "08365",
    "fee": 0,
    "sat_yn": "Y"
  },
  {
    "district": "금천구",
    "center_name": "드림홈스쿨지역아동센터",
    "address": "서울 금천구 가산로 106, 상가 202~203호 (가산동)",
    "phone": "02-854-5405",
    "capacity": 27,
    "lat": 37.4754448086,
    "lon": 126.8936809314,
    "zipcode": "08532",
    "fee": 0,
    "sat_yn": "N"
  },
  {
    "district": "금천구",
    "center_name": "세림지역아동센터",
    "address": "서울 금천구 금하로 658, 2층 (시흥동)",
    "phone": "02-809-0004",
    "capacity": 24,
    "lat": 37.4535499178,
    "lon": 126.9036036323,
    "zipcode": "08628",
    "fee": 0,
    "sat_yn": "N"
  },
  {
    "district": "금천구",
    "center_name": "함사람지역아동센터",
    "address": "서울 금천구 금하로11길 17, 2층 (시흥동)",
    "phone": "02-805-7283",
    "capacity": 25,
    "lat": 37.45485145,
    "lon": 126.9031897,
    "zipcode": "08626",
    "fee": 0,
    "sat_yn": "N"
  },
  {
    "district": "금천구",
    "center_name": "나누리지역아동센터",
    "address": "서울 금천구 금하로23길 40, 2층 (시흥동)",
    "phone": "02-892-0109",
    "capacity": 37,
    "lat": 37.45310318,
    "lon": 126.9089193,
    "zipcode": "08574",
    "fee": 0,
    "sat_yn": "Y"
  },
  {
    "district": "금천구",
    "center_name": "푸른샘지역아동센터",
    "address": "서울 금천구 금하로24길 20, 2~3층 (시흥동)",
    "phone": "02-896-1489",
    "capacity": 45,
    "lat": 37.45007234,
    "lon": 126.9083261,
    "zipcode": "08649",
    "fee": 0,
    "sat_yn": "Y"
  },
  {
    "district": "금천구",
    "center_name": "함께하는사랑밭독산지역아동센터",
    "address": "서울 금천구 남부순환로 1424, A동 2층 (독산동)",
    "phone": "02-851-3808",
    "capacity": 49,
    "lat": 37.48052232,
    "lon": 126.9089602,
    "zipcode": "08548",
    "fee": 0,
    "sat_yn": "N"
  },
  {
    "district": "금천구",
    "center_name": "금천행복한지역아동센터",
    "address": "서울 금천구 독산로 119, 3층 (시흥동)",
    "phone": "02-895-9561",
    "capacity": 33,
    "lat": 37.4579536763,
    "lon": 126.9051247384,
    "zipcode": "08625",
    "fee": 0,
    "sat_yn": "Y"
  },
  {
    "district": "금천구",
    "center_name": "아이들세상지역아동센터",
    "address": "서울 금천구 독산로 190, 4층 (독산동)",
    "phone": "02-806-2954",
    "capacity": 24,
    "lat": 37.46408282,
    "lon": 126.9033602,
    "zipcode": "08562",
    "fee": 0,
    "sat_yn": "N"
  },
  {
    "district": "금천구",
    "center_name": "비전지역아동센터",
    "address": "서울 금천구 독산로22길 60, 2층 (시흥동)",
    "phone": "02-802-5655",
    "capacity": 25,
    "lat": 37.45299226,
    "lon": 126.9094987,
    "zipcode": "08574",
    "fee": 0,
    "sat_yn": "N"
  },
  {
    "district": "금천구",
    "center_name": "멘토지역아동센터",
    "address": "서울 금천구 독산로40길 49, 2층 (시흥동)",
    "phone": "02-802-0034",
    "capacity": 34,
    "lat": 37.4610142313,
    "lon": 126.9071635651,
    "zipcode": "08568",
    "fee": 0,
    "sat_yn": "N"
  },
  {
    "district": "금천구",
    "center_name": "오예스지역아동센터",
    "address": "서울 금천구 독산로64길 50 (독산동)",
    "phone": "02-803-2340",
    "capacity": 33,
    "lat": 37.46601208,
    "lon": 126.9051537,
    "zipcode": "08561",
    "fee": 0,
    "sat_yn": "N"
  },
  {
    "district": "금천구",
    "center_name": "렘넌트지역아동센터",
    "address": "서울 금천구 독산로67길 19, 2층 (독산동)",
    "phone": "02-806-0600",
    "capacity": 31,
    "lat": 37.46484681,
    "lon": 126.9015315,
    "zipcode": "08618",
    "fee": 0,
    "sat_yn": "N"
  },
  {
    "district": "금천구",
    "center_name": "한별지역아동센터",
    "address": "서울 금천구 독산로72길 86-11, 2층 (독산동)",
    "phone": "02-3281-7791",
    "capacity": 25,
    "lat": 37.4692268956,
    "lon": 126.9066397413,
    "zipcode": "08556",
    "fee": 0,
    "sat_yn": "N"
  },
  {
    "district": "금천구",
    "center_name": "성원미디어스쿨지역아동센터",
    "address": "서울 금천구 독산로74길 31 (독산동)",
    "phone": "02-858-9919",
    "capacity": 49,
    "lat": 37.4686529967,
    "lon": 126.9041078544,
    "zipcode": "08557",
    "fee": 0,
    "sat_yn": "N"
  },
  {
    "district": "금천구",
    "center_name": "하늘지역아동센터",
    "address": "서울 금천구 문성로 12, 2층 (독산동)",
    "phone": "02-837-2305",
    "capacity": 34,
    "lat": 37.47615061,
    "lon": 126.9049385,
    "zipcode": "08552",
    "fee": 0,
    "sat_yn": "Y"
  },
  {
    "district": "금천구",
    "center_name": "금나래지역아동센터",
    "address": "서울 금천구 범안로 1127, 2층 (독산동)",
    "phone": "02-803-7979",
    "capacity": 33,
    "lat": 37.46637289,
    "lon": 126.8919851,
    "zipcode": "08586",
    "fee": 0,
    "sat_yn": "Y"
  },
  {
    "district": "금천구",
    "center_name": "독산1동지역아동센터",
    "address": "서울 금천구 벚꽃로 73, 상가 306호 (독산동)",
    "phone": "02-6677-1112",
    "capacity": 32,
    "lat": 37.4617859266,
    "lon": 126.8904477323,
    "zipcode": "08596",
    "fee": 0,
    "sat_yn": "N"
  },
  {
    "district": "금천구",
    "center_name": "사랑의지역아동센터",
    "address": "서울 금천구 시흥대로 104길 36, 3층 (독산동)",
    "phone": "02-893-1112",
    "capacity": 25,
    "lat": 37.46451459,
    "lon": 126.8996882,
    "zipcode": "08617",
    "fee": 0,
    "sat_yn": "N"
  },
  {
    "district": "금천구",
    "center_name": "금천미래지역아동센터",
    "address": "서울 금천구 시흥대로 147길 24, 3층 (독산동)",
    "phone": "02-854-9442",
    "capacity": 32,
    "lat": 37.4744172798,
    "lon": 126.8969150807,
    "zipcode": "08531",
    "fee": 0,
    "sat_yn": "N"
  },
  {
    "district": "금천구",
    "center_name": "살구지역아동센터",
    "address": "서울 금천구 시흥대로 148길 27, 2층 (독산동)",
    "phone": "02-861-3007",
    "capacity": 25,
    "lat": 37.4751323,
    "lon": 126.9002445,
    "zipcode": "08539",
    "fee": 0,
    "sat_yn": "N"
  },
  {
    "district": "금천구",
    "center_name": "금천영재지역아동센터",
    "address": "서울 금천구 시흥대로 20길 17, 2층 (시흥동)",
    "phone": "02-584-4967",
    "capacity": 36,
    "lat": 37.44117156,
    "lon": 126.9042093,
    "zipcode": "08652",
    "fee": 0,
    "sat_yn": "N"
  },
  {
    "district": "금천구",
    "center_name": "CLC희망학교지역아동센터",
    "address": "서울 금천구 시흥대로 258, 4층 501호 (시흥동)",
    "phone": "02-6268-1419",
    "capacity": 35,
    "lat": 37.45678737,
    "lon": 126.9001606,
    "zipcode": "08619",
    "fee": 0,
    "sat_yn": "N"
  },
  {
    "district": "금천구",
    "center_name": "안수인지역아동센터",
    "address": "서울 금천구 시흥대로 26길 9, 2층 (시흥동)",
    "phone": "02-892-4359",
    "capacity": 32,
    "lat": 37.44186252,
    "lon": 126.9042795,
    "zipcode": "08652",
    "fee": 0,
    "sat_yn": "N"
  },
  {
    "district": "금천구",
    "center_name": "한사랑지역아동센터",
    "address": "서울 금천구 시흥대로 47길 32, 2층 (시흥동)",
    "phone": "02-807-7272",
    "capacity": 29,
    "lat": 37.44989664,
    "lon": 126.9003106,
    "zipcode": "08635",
    "fee": 0,
    "sat_yn": "Y"
  },
  {
    "district": "금천구",
    "center_name": "전진상지역아동센터",
    "address": "서울 금천구 탑골로3가길 22 (시흥동)",
    "phone": "070-8839-9313",
    "capacity": 49,
    "lat": 37.45258801,
    "lon": 126.9107337,
    "zipcode": "08574",
    "fee": 0,
    "sat_yn": "N"
  },
  {
    "district": "노원구",
    "center_name": "구립하계지역아동센터",
    "address": "서울 노원구 노원로16길 15, 3층 (하계동, 하계종합사회복지관)",
    "phone": "02-973-1655",
    "capacity": 35,
    "lat": 37.64345,
    "lon": 127.07335,
    "zipcode": "01748",
    "fee": 0,
    "sat_yn": "Y"
  },
  {
    "district": "노원구",
    "center_name": "구립초안산숲속지역아동센터",
    "address": "서울 노원구 덕릉로 60길 199 (월계2동, 초안숲속작은도서관)",
    "phone": "02-900-3901",
    "capacity": 19,
    "lat": 37.63203,
    "lon": 127.04448,
    "zipcode": "01870",
    "fee": 0,
    "sat_yn": "N"
  },
  {
    "district": "노원구",
    "center_name": "마음터지역아동센터",
    "address": "서울 노원구 덕릉로 849, 3층 (상계동, 한양탁구장)",
    "phone": "02-932-5972",
    "capacity": 49,
    "lat": 37.67209,
    "lon": 127.0826,
    "zipcode": "01634",
    "fee": 0,
    "sat_yn": "N"
  },
  {
    "district": "노원구",
    "center_name": "구립상계3,4동지역아동센터",
    "address": "서울 노원구 덕릉로 859, 3층 (상계동, 상계3,4동주민센터)",
    "phone": "02-952-5748",
    "capacity": 35,
    "lat": 37.67293,
    "lon": 127.08323,
    "zipcode": "01633",
    "fee": 0,
    "sat_yn": "N"
  },
  {
    "district": "노원구",
    "center_name": "구립노원청소년지역아동센터",
    "address": "서울 노원구 덕릉로 86길 5, 2층 (중계동)",
    "phone": "02-938-7971",
    "capacity": 29,
    "lat": 37.66017,
    "lon": 127.0759,
    "zipcode": "01715",
    "fee": 0,
    "sat_yn": "N"
  },
  {
    "district": "노원구",
    "center_name": "구립공릉지역아동센터",
    "address": "서울 노원구 동일로 1127, 본관 3층 (공릉동, 공릉종합사회복지관)",
    "phone": "02-975-2464",
    "capacity": 29,
    "lat": 37.63026,
    "lon": 127.07037,
    "zipcode": "01851",
    "fee": 0,
    "sat_yn": "N"
  },
  {
    "district": "노원구",
    "center_name": "구립상계1동지역아동센터",
    "address": "서울 노원구 동일로 1697, 2층 (상계동, 상계1동주민센터)",
    "phone": "02-2116-2734",
    "capacity": 25,
    "lat": 37.67991,
    "lon": 127.05495,
    "zipcode": "01604",
    "fee": 0,
    "sat_yn": "N"
  },
  {
    "district": "노원구",
    "center_name": "태릉지역아동센터",
    "address": "서울 노원구 동일로174길 9-4, 2층 (공릉동)",
    "phone": "070-8163-5591",
    "capacity": 19,
    "lat": 37.61907,
    "lon": 127.07612,
    "zipcode": "01849",
    "fee": 0,
    "sat_yn": "N"
  },
  {
    "district": "노원구",
    "center_name": "구립공릉행복지역아동센터",
    "address": "서울 노원구 동일로179길 22, 3층 (공릉동, 공릉행복발전소)",
    "phone": "02-976-3824",
    "capacity": 35,
    "lat": 37.62206,
    "lon": 127.07281,
    "zipcode": "01857",
    "fee": 0,
    "sat_yn": "N"
  },
  {
    "district": "노원구",
    "center_name": "구립꿈나무지역아동센터",
    "address": "서울 노원구 동일로186길 3-24, 1층 (공릉동, 공릉1동주민센터)",
    "phone": "02-978-7555",
    "capacity": 32,
    "lat": 37.6327,
    "lon": 127.06123,
    "zipcode": "01864",
    "fee": 0,
    "sat_yn": "N"
  },
  {
    "district": "노원구",
    "center_name": "삼정학교지역아동센터",
    "address": "서울 노원구 동일로215길 48, 1층 (상계동6‧7, 상계주공3단지A)",
    "phone": "02-865-5570",
    "capacity": 25,
    "lat": 37.65165,
    "lon": 127.05874,
    "zipcode": "01761",
    "fee": 0,
    "sat_yn": "N"
  },
  {
    "district": "노원구",
    "center_name": "구립상계숲속지역아동센터",
    "address": "서울 노원구 동일로227길 106 (상계8동, 상계숲속작은도서관)",
    "phone": "070-4912-3127",
    "capacity": 23,
    "lat": 37.66944,
    "lon": 127.05044,
    "zipcode": "01618",
    "fee": 0,
    "sat_yn": "N"
  },
  {
    "district": "노원구",
    "center_name": "열림지역아동센터",
    "address": "서울 노원구 동일로231다길 6, B1층 (상계동, 열림교회)",
    "phone": "02-936-7574",
    "capacity": 29,
    "lat": 37.67192,
    "lon": 127.0513,
    "zipcode": "01614",
    "fee": 0,
    "sat_yn": "N"
  },
  {
    "district": "노원구",
    "center_name": "구립수락지역아동센터",
    "address": "서울 노원구 동일로242길 77, 2층 (상계동, 수락행복발전소)",
    "phone": "070-7716-9905",
    "capacity": 21,
    "lat": 37.67464,
    "lon": 127.05958,
    "zipcode": "01626",
    "fee": 0,
    "sat_yn": "N"
  },
  {
    "district": "노원구",
    "center_name": "구립한내지혜의숲지역아동센터",
    "address": "서울 노원구 마들로 86 (월계동, 한내도서관내)",
    "phone": "070-4286-3687",
    "capacity": 27,
    "lat": 37.62359,
    "lon": 127.06878,
    "zipcode": "01912",
    "fee": 0,
    "sat_yn": "N"
  },
  {
    "district": "노원구",
    "center_name": "하늘품의집지역아동센터",
    "address": "서울 노원구 상계로23다길 33, 2층 (상계동)",
    "phone": "02-934-0320",
    "capacity": 29,
    "lat": 37.66024071,
    "lon": 127.0681837,
    "zipcode": "01682",
    "fee": 0,
    "sat_yn": "N"
  },
  {
    "district": "노원구",
    "center_name": "금빛지역아동센터",
    "address": "서울 노원구 상계로26길 20, 상가 3층 (상계동, 대동청솔아파트)",
    "phone": "02-939-7712",
    "capacity": 29,
    "lat": 37.65792,
    "lon": 127.07141,
    "zipcode": "01698",
    "fee": 0,
    "sat_yn": "N"
  },
  {
    "district": "노원구",
    "center_name": "구립월계문화지역아동센터",
    "address": "서울 노원구 월계로42길 9, 2층 (월계동, 월계문화복지센터)",
    "phone": "02-909-3273",
    "capacity": 35,
    "lat": 37.62426,
    "lon": 127.05079,
    "zipcode": "01884",
    "fee": 0,
    "sat_yn": "N"
  },
  {
    "district": "노원구",
    "center_name": "구립노원1지역아동센터",
    "address": "서울 노원구 월계로55길 16, 관리동 1층 (월계동, 월계사슴2단지아파트)",
    "phone": "02-972-0704",
    "capacity": 35,
    "lat": 37.6327,
    "lon": 127.06123,
    "zipcode": "01864",
    "fee": 0,
    "sat_yn": "N"
  },
  {
    "district": "노원구",
    "center_name": "신나는지역아동센터",
    "address": "서울 노원구 중계로14가길 29, 3층 (중계동)",
    "phone": "02-934-4927",
    "capacity": 19,
    "lat": 37.64811,
    "lon": 127.08242,
    "zipcode": "01725",
    "fee": 0,
    "sat_yn": "N"
  },
  {
    "district": "노원구",
    "center_name": "공립불암골지역아동센터",
    "address": "서울 노원구 중계로14길 53 (중계동, 불암골행복발전소)",
    "phone": "02-3392-5266",
    "capacity": 35,
    "lat": 37.65075,
    "lon": 127.08272,
    "zipcode": "01722",
    "fee": 0,
    "sat_yn": "N"
  },
  {
    "district": "노원구",
    "center_name": "구립월계지역아동센터",
    "address": "서울 노원구 초안산로1길 51, 2층 (월계동, 월계종합사회복지관)",
    "phone": "02-997-4216",
    "capacity": 35,
    "lat": 37.62725,
    "lon": 127.05287,
    "zipcode": "01881",
    "fee": 0,
    "sat_yn": "N"
  },
  {
    "district": "도봉구",
    "center_name": "나눔플러스지역아동센터",
    "address": "서울 도봉구 도봉로109길 40, 2층 (쌍문동)",
    "phone": "02-997-5579",
    "capacity": 35,
    "lat": 37.64712,
    "lon": 127.03114,
    "zipcode": "01444",
    "fee": 0,
    "sat_yn": "N"
  },
  {
    "district": "도봉구",
    "center_name": "늘사랑지역아동센터",
    "address": "서울 도봉구 마들로11길 25, 401호 (창동)",
    "phone": "02-951-1498",
    "capacity": 29,
    "lat": 37.65391,
    "lon": 127.05183,
    "zipcode": "01415",
    "fee": 0,
    "sat_yn": "N"
  },
  {
    "district": "도봉구",
    "center_name": "도봉지역아동센터",
    "address": "서울 도봉구 시루봉로 232, 2층 (방학동)",
    "phone": "02-955-5837",
    "capacity": 25,
    "lat": 37.67004,
    "lon": 127.03972,
    "zipcode": "01349",
    "fee": 0,
    "sat_yn": "N"
  },
  {
    "district": "도봉구",
    "center_name": "도서관속별난학교지역아동센터",
    "address": "서울 도봉구 방학로 12가길 5, 3층 (방학동)",
    "phone": "070-8638-1972",
    "capacity": 19,
    "lat": 37.66262,
    "lon": 127.02887,
    "zipcode": "01359",
    "fee": 0,
    "sat_yn": "N"
  },
  {
    "district": "도봉구",
    "center_name": "무지개지역아동센터",
    "address": "서울 도봉구 방학로3길 116, 2층 (쌍문동)",
    "phone": "070-8278-2147",
    "capacity": 33,
    "lat": 37.65821,
    "lon": 127.0384,
    "zipcode": "01394",
    "fee": 0,
    "sat_yn": "N"
  },
  {
    "district": "도봉구",
    "center_name": "방학동지역아동센터",
    "address": "서울 도봉구 해등로243 상가동 201동 203호 (쌍문동, 금호2차A)",
    "phone": "02-903-1994",
    "capacity": 19,
    "lat": 37.65878,
    "lon": 127.02806,
    "zipcode": "01388",
    "fee": 0,
    "sat_yn": "N"
  },
  {
    "district": "도봉구",
    "center_name": "베다니지역아동센터",
    "address": "서울 도봉구 우이천로48길 4, 2층 (쌍문동)",
    "phone": "02-998-9619",
    "capacity": 48,
    "lat": 37.65576,
    "lon": 127.01606,
    "zipcode": "01372",
    "fee": 0,
    "sat_yn": "N"
  },
  {
    "district": "도봉구",
    "center_name": "샘터지역아동센터",
    "address": "서울 도봉구 노해로62길 106, 2층 (창동)",
    "phone": "02-6401-0691",
    "capacity": 49,
    "lat": 37.64668,
    "lon": 127.03915,
    "zipcode": "01456",
    "fee": 0,
    "sat_yn": "N"
  },
  {
    "district": "도봉구",
    "center_name": "쌍문지역아동센터",
    "address": "서울 도봉구 우이천로32길 57(쌍문동)",
    "phone": "02-997-7975",
    "capacity": 29,
    "lat": 37.65015,
    "lon": 127.02485,
    "zipcode": "01379",
    "fee": 0,
    "sat_yn": "N"
  },
  {
    "district": "도봉구",
    "center_name": "씨앗지역아동센터",
    "address": "서울 도봉구 도봉로 901, 202호 (도봉동)",
    "phone": "02-954-0045",
    "capacity": 34,
    "lat": 37.68493,
    "lon": 127.04571,
    "zipcode": "01303",
    "fee": 0,
    "sat_yn": "N"
  },
  {
    "district": "도봉구",
    "center_name": "아름다운지역아동센터",
    "address": "서울 도봉구 도봉로104길 63, 2층 (창동)",
    "phone": "02-904-2641",
    "capacity": 49,
    "lat": 37.64346,
    "lon": 127.03558,
    "zipcode": "01460",
    "fee": 0,
    "sat_yn": "N"
  },
  {
    "district": "도봉구",
    "center_name": "에듀존도봉지역아동센터",
    "address": "서울 도봉구 해등로 111, 4층 (창동)",
    "phone": "02-900-1159",
    "capacity": 49,
    "lat": 37.65325,
    "lon": 127.04052,
    "zipcode": "01427",
    "fee": 0,
    "sat_yn": "N"
  },
  {
    "district": "도봉구",
    "center_name": "영광지역아동센터",
    "address": "서울 도봉구 노해로41가길 17 (쌍문동, 쌍문영광교회)",
    "phone": "02-906-1555",
    "capacity": 29,
    "lat": 37.6503,
    "lon": 127.02689,
    "zipcode": "01380",
    "fee": 0,
    "sat_yn": "N"
  },
  {
    "district": "도봉구",
    "center_name": "참솔지역아동센터",
    "address": "서울 도봉구 시루봉로 193, 2층 (방학동)",
    "phone": "02-932-4738",
    "capacity": 49,
    "lat": 37.66667,
    "lon": 127.03219,
    "zipcode": "01315",
    "fee": 0,
    "sat_yn": "N"
  },
  {
    "district": "도봉구",
    "center_name": "창동드림지역아동센터",
    "address": "서울 도봉구 우이천로4다길 32, 2층 (창동)",
    "phone": "02-997-8790",
    "capacity": 29,
    "lat": 37.63532,
    "lon": 127.0406,
    "zipcode": "01479",
    "fee": 0,
    "sat_yn": "N"
  },
  {
    "district": "도봉구",
    "center_name": "해맑음한일지역아동센터",
    "address": "서울 도봉구 방학로 57-17, 1층 (방학동)",
    "phone": "02-956-0225",
    "capacity": 49,
    "lat": 37.66256,
    "lon": 127.04531,
    "zipcode": "01406",
    "fee": 0,
    "sat_yn": "N"
  },
  {
    "district": "도봉구",
    "center_name": "희망드림지역아동센터",
    "address": "서울 도봉구 도봉로110아길 12, 2층 (창동)",
    "phone": "02-900-9313",
    "capacity": 29,
    "lat": 37.64567,
    "lon": 127.03745,
    "zipcode": "01458",
    "fee": 0,
    "sat_yn": "N"
  },
  {
    "district": "동대문구",
    "center_name": "구립동대문지역아동센터",
    "address": "서울 동대문구 전농로 16길 3, 1층",
    "phone": "02-3394-5759",
    "capacity": 21,
    "lat": 37.5784545,
    "lon": 127.057567,
    "zipcode": "02540",
    "fee": 0,
    "sat_yn": "N"
  },
  {
    "district": "동대문구",
    "center_name": "꿈사랑방지역아동센터",
    "address": "서울 동대문구 사가정로 51, 4층",
    "phone": "02-2212-5777",
    "capacity": 19,
    "lat": 37.5737176,
    "lon": 127.0523471,
    "zipcode": "02553",
    "fee": 0,
    "sat_yn": "N"
  },
  {
    "district": "동대문구",
    "center_name": "나누리지역아동센터",
    "address": "서울 동대문구 전농로17길 7, 3~4층 (전농동)",
    "phone": "02-2247-7103",
    "capacity": 35,
    "lat": 37.5784872,
    "lon": 127.0565813,
    "zipcode": "02546",
    "fee": 0,
    "sat_yn": "N"
  },
  {
    "district": "동대문구",
    "center_name": "드림지역아동센터",
    "address": "서울 동대문구 장한로 180, 302호 (장안동)",
    "phone": "02-3394-8157",
    "capacity": 36,
    "lat": 37.5764447,
    "lon": 127.0723848,
    "zipcode": "02432",
    "fee": 0,
    "sat_yn": "Y"
  },
  {
    "district": "동대문구",
    "center_name": "성복행복한홈스쿨지역아동센터",
    "address": "서울 동대문구 천호대로81길 46, 4층 (장안동)",
    "phone": "02-2212-2250",
    "capacity": 31,
    "lat": 37.5642153,
    "lon": 127.064982244,
    "zipcode": "02636",
    "fee": 0,
    "sat_yn": "Y"
  },
  {
    "district": "동대문구",
    "center_name": "아름다운안암지역아동센터",
    "address": "서울 동대문구 약령시로 12, 2층 (제기동)",
    "phone": "02-921-2121",
    "capacity": 22,
    "lat": 37.5825715,
    "lon": 127.0311406,
    "zipcode": "02574",
    "fee": 0,
    "sat_yn": "Y"
  },
  {
    "district": "동대문구",
    "center_name": "염광지역아동센터",
    "address": "서울 동대문구 전농로16길 83 (전농동)",
    "phone": "02-2217-2703",
    "capacity": 35,
    "lat": 37.5785715,
    "lon": 127.0619358,
    "zipcode": "02508",
    "fee": 0,
    "sat_yn": "Y"
  },
  {
    "district": "동대문구",
    "center_name": "원광지역아동센터",
    "address": "서울 동대문구 사가정로15길 47 (전농동)",
    "phone": "070-7011-3334",
    "capacity": 19,
    "lat": 37.5792884,
    "lon": 127.0587893,
    "zipcode": "02507",
    "fee": 0,
    "sat_yn": "N"
  },
  {
    "district": "동대문구",
    "center_name": "이문꿈지역아동센터",
    "address": "서울 동대문구 이문로 130, 2층",
    "phone": "02-6368-1590",
    "capacity": 25,
    "lat": 37.5981195,
    "lon": 127.0614708,
    "zipcode": "02418",
    "fee": 0,
    "sat_yn": "N"
  },
  {
    "district": "동대문구",
    "center_name": "한길지역아동센터",
    "address": "서울 동대문구 외대역동로 101, 상가 203~204호",
    "phone": "02-957-5090",
    "capacity": 39,
    "lat": 37.5967739786,
    "lon": 127.0649124882,
    "zipcode": "02427",
    "fee": 0,
    "sat_yn": "Y"
  },
  {
    "district": "동대문구",
    "center_name": "한마음지역아동센터",
    "address": "서울 동대문구 왕산로45길 31, 2층 (청량리동)",
    "phone": "02-964-0008",
    "capacity": 29,
    "lat": 37.584719,
    "lon": 127.0482995582,
    "zipcode": "02487",
    "fee": 0,
    "sat_yn": "N"
  },
  {
    "district": "동대문구",
    "center_name": "해피아트지역아동센터",
    "address": "서울 동대문구 망우로14가길 28, 2층 (휘경동)",
    "phone": "02-2249-9874",
    "capacity": 29,
    "lat": 37.5879302,
    "lon": 127.0595617,
    "zipcode": "02497",
    "fee": 0,
    "sat_yn": "N"
  },
  {
    "district": "동대문구",
    "center_name": "행복한지역아동센터",
    "address": "서울 동대문구 외대역동로 75, 2~3층 (이문동)",
    "phone": "02-966-5090",
    "capacity": 29,
    "lat": 37.5950387,
    "lon": 127.0645869,
    "zipcode": "02412",
    "fee": 0,
    "sat_yn": "Y"
  },
  {
    "district": "동대문구",
    "center_name": "희망주는지역아동센터",
    "address": "서울 동대문구 한천로85, 4층 (답십리동)",
    "phone": "02-2246-3323",
    "capacity": 33,
    "lat": 37.5692502,
    "lon": 127.0636948453,
    "zipcode": "02611",
    "fee": 0,
    "sat_yn": "N"
  },
  {
    "district": "동대문구",
    "center_name": "힘찬지역아동센터",
    "address": "서울 동대문구 장안벚꽃로 5길 19, 3층 (휘경동)",
    "phone": "02-2245-7179",
    "capacity": 29,
    "lat": 37.5820674007,
    "lon": 127.0741592329,
    "zipcode": "02513",
    "fee": 0,
    "sat_yn": "N"
  },
  {
    "district": "동작구",
    "center_name": "나눔지역아동센터",
    "address": "서울 동작구 신대방2나길 22, 101호 (신대방동)",
    "phone": "02-843-9275",
    "capacity": 23,
    "lat": 37.48955,
    "lon": 126.91292,
    "zipcode": "07066",
    "fee": 0,
    "sat_yn": "N"
  },
  {
    "district": "동작구",
    "center_name": "노량진행복한홈스쿨지역아동센터",
    "address": "서울 동작구 노량진로30길 22 (본동)",
    "phone": "02-815-3982",
    "capacity": 29,
    "lat": 37.51183465,
    "lon": 126.9539431,
    "zipcode": "06908",
    "fee": 0,
    "sat_yn": "N"
  },
  {
    "district": "동작구",
    "center_name": "대방지역아동센터",
    "address": "서울 동작구 여의대방로44길 47, 3층",
    "phone": "02-3280-5855",
    "capacity": 34,
    "lat": 37.51016,
    "lon": 126.9301,
    "zipcode": "06942",
    "fee": 0,
    "sat_yn": "N"
  },
  {
    "district": "동작구",
    "center_name": "동작이수지역아동센터",
    "address": "서울 동작구 동작대로 35차길 7, 2층 (사당동)",
    "phone": "02-592-3723",
    "capacity": 19,
    "lat": 37.49311,
    "lon": 126.9769,
    "zipcode": "06991",
    "fee": 0,
    "sat_yn": "N"
  },
  {
    "district": "동작구",
    "center_name": "동작지역아동센터",
    "address": "서울 동작구 국사봉길 18, 3층 (신대방동)",
    "phone": "02-821-5880",
    "capacity": 27,
    "lat": 37.4984,
    "lon": 126.92897,
    "zipcode": "07053",
    "fee": 0,
    "sat_yn": "N"
  },
  {
    "district": "동작구",
    "center_name": "동화나라지역아동센터",
    "address": "서울 동작구 사당로 164-1, A동 202호 (사당동)",
    "phone": "02-3473-6709",
    "capacity": 27,
    "lat": 37.48673,
    "lon": 126.96725,
    "zipcode": "07030",
    "fee": 0,
    "sat_yn": "N"
  },
  {
    "district": "동작구",
    "center_name": "상도푸른지역아동센터",
    "address": "서울 동작구 양녕로28길 35, 2층 (상도동)",
    "phone": "02-825-9111",
    "capacity": 19,
    "lat": 37.49831,
    "lon": 126.94571,
    "zipcode": "07035",
    "fee": 0,
    "sat_yn": "N"
  },
  {
    "district": "동작구",
    "center_name": "생각의숲지역아동센터",
    "address": "서울 동작구 성대로29길 61, 2층 (상도동)",
    "phone": "02-3280-0922",
    "capacity": 25,
    "lat": 37.50089,
    "lon": 126.93782,
    "zipcode": "06961",
    "fee": 0,
    "sat_yn": "N"
  },
  {
    "district": "동작구",
    "center_name": "선한지역아동센터",
    "address": "서울 동작구 흑석로13마길 1, 3층 (흑석동, 선한교회)",
    "phone": "02-824-6213",
    "capacity": 19,
    "lat": 37.50945,
    "lon": 126.96001,
    "zipcode": "06910",
    "fee": 0,
    "sat_yn": "N"
  },
  {
    "district": "동작구",
    "center_name": "솔나무지역아동센터",
    "address": "서울 동작구 등용로65, 2층 (대방동)",
    "phone": "02-924-5907",
    "capacity": 25,
    "lat": 37.50711,
    "lon": 126.93219,
    "zipcode": "06947",
    "fee": 0,
    "sat_yn": "N"
  },
  {
    "district": "동작구",
    "center_name": "신대방동구립지역아동센터",
    "address": "서울 동작구 신대방1길 42 (신대방동)",
    "phone": "02-849-8690",
    "capacity": 28,
    "lat": 37.48651,
    "lon": 126.90937,
    "zipcode": "07073",
    "fee": 0,
    "sat_yn": "N"
  },
  {
    "district": "동작구",
    "center_name": "신상도지역아동센터",
    "address": "서울 동작구 양녕로20길 108, 3층 (상도동, 신상도교회)",
    "phone": "02-826-7712",
    "capacity": 34,
    "lat": 37.49702,
    "lon": 126.94522,
    "zipcode": "07038",
    "fee": 0,
    "sat_yn": "Y"
  },
  {
    "district": "동작구",
    "center_name": "아이들의울타리지역아동센터",
    "address": "서울 동작구 장승배기로20길 8, 201호 (노량진동)",
    "phone": "02-814-0287",
    "capacity": 25,
    "lat": 37.5085,
    "lon": 126.94065,
    "zipcode": "06925",
    "fee": 0,
    "sat_yn": "N"
  },
  {
    "district": "동작구",
    "center_name": "우리모여지역아동센터",
    "address": "서울 동작구 사당로22나길 69, 2층 (사당동)",
    "phone": "02-583-6684",
    "capacity": 19,
    "lat": 37.48056,
    "lon": 126.97335,
    "zipcode": "07017",
    "fee": 0,
    "sat_yn": "N"
  },
  {
    "district": "동작구",
    "center_name": "위더스지역아동센터",
    "address": "서울 동작구 양녕로27길 23, 4층 (상도동)",
    "phone": "02-815-5229",
    "capacity": 35,
    "lat": 37.50418,
    "lon": 126.93973,
    "zipcode": "06963",
    "fee": 0,
    "sat_yn": "N"
  },
  {
    "district": "동작구",
    "center_name": "위더스틴즈지역아동센터",
    "address": "서울 동작구 양녕로27길 23, 5층 (상도동)",
    "phone": "070-4848-3067",
    "capacity": 35,
    "lat": 37.49898,
    "lon": 126.94254,
    "zipcode": "07048",
    "fee": 0,
    "sat_yn": "Y"
  },
  {
    "district": "동작구",
    "center_name": "작은사랑서울지역아동센터",
    "address": "서울 동작구 대방동6길 21, 103호 (상도동)",
    "phone": "02-816-1470",
    "capacity": 19,
    "lat": 37.50279,
    "lon": 126.92887,
    "zipcode": "06953",
    "fee": 0,
    "sat_yn": "N"
  },
  {
    "district": "동작구",
    "center_name": "좋은친구들지역아동센터",
    "address": "서울 동작구 동작대로13길 34, 2층 (사당동)",
    "phone": "02-587-0203",
    "capacity": 20,
    "lat": 37.48195,
    "lon": 126.97806,
    "zipcode": "07012",
    "fee": 0,
    "sat_yn": "N"
  },
  {
    "district": "동작구",
    "center_name": "푸른나무지역아동센터",
    "address": "서울 동작구 흑석한강로 13, 4층 (흑석동)",
    "phone": "02-825-7267",
    "capacity": 19,
    "lat": 37.50564,
    "lon": 126.96661,
    "zipcode": "06982",
    "fee": 0,
    "sat_yn": "N"
  },
  {
    "district": "동작구",
    "center_name": "흑석지역아동센터",
    "address": "서울 동작구 현충로 111, B상가 401호 (흑석동)",
    "phone": "02-816-8031",
    "capacity": 19,
    "lat": 37.50763,
    "lon": 126.96606,
    "zipcode": "06904",
    "fee": 0,
    "sat_yn": "N"
  },
  {
    "district": "동작구",
    "center_name": "흑석희망지역아동센터",
    "address": "서울 동작구 현충로 111, B상가 402호 (흑석동)",
    "phone": "070-8666-8032",
    "capacity": 19,
    "lat": 37.50763,
    "lon": 126.96606,
    "zipcode": "06904",
    "fee": 0,
    "sat_yn": "N"
  },
  {
    "district": "마포구",
    "center_name": "나눔공부방지역아동센터",
    "address": "서울 마포구 대흥로20길 16, 2층 (대흥동, 격암빌딩)",
    "phone": "02-363-2697",
    "capacity": 41,
    "lat": 37.55012213,
    "lon": 126.944908,
    "zipcode": "04136",
    "fee": 0,
    "sat_yn": "Y"
  },
  {
    "district": "마포구",
    "center_name": "마리스타지역아동센터",
    "address": "서울 마포구 토정로2길 37 (합정동)",
    "phone": "02-338-8356",
    "capacity": 19,
    "lat": 37.54452657,
    "lon": 126.9141254,
    "zipcode": "04085",
    "fee": 0,
    "sat_yn": "N"
  },
  {
    "district": "마포구",
    "center_name": "망원무지개지역아동센터",
    "address": "서울 마포구 월드컵로25길 58, 3층 (망원동)",
    "phone": "02-335-6831",
    "capacity": 39,
    "lat": 37.55793017,
    "lon": 126.9043804,
    "zipcode": "03964",
    "fee": 0,
    "sat_yn": "N"
  },
  {
    "district": "마포구",
    "center_name": "서진지역아동센터",
    "address": "서울 마포구 새터산길 72, 2층 (성산동)",
    "phone": "02-372-5091",
    "capacity": 39,
    "lat": 37.5678134,
    "lon": 126.9078155,
    "zipcode": "03947",
    "fee": 0,
    "sat_yn": "Y"
  },
  {
    "district": "마포구",
    "center_name": "성산행복한홈스쿨지역아동센터",
    "address": "서울 마포구 포은로 30, 1층 (합정동, 성산성결교회)",
    "phone": "02-3143-2330",
    "capacity": 30,
    "lat": 37.55067028,
    "lon": 126.9081175,
    "zipcode": "04021",
    "fee": 0,
    "sat_yn": "N"
  },
  {
    "district": "마포구",
    "center_name": "시냇가에심은나무지역아동센터",
    "address": "서울 마포구 대흥로156, 3층 (대흥동)",
    "phone": "070-7527-9342",
    "capacity": 29,
    "lat": 37.54113,
    "lon": 126.95136,
    "zipcode": "04169",
    "fee": 0,
    "sat_yn": "N"
  },
  {
    "district": "마포구",
    "center_name": "엘림지역아동센터",
    "address": "서울 마포구 방울내로 53, 2층 (망원동)",
    "phone": "02-332-1556",
    "capacity": 19,
    "lat": 37.55957919,
    "lon": 126.901555,
    "zipcode": "03960",
    "fee": 0,
    "sat_yn": "N"
  },
  {
    "district": "마포구",
    "center_name": "열린지역아동센터",
    "address": "서울 마포구 월드컵북로48길 8, 2층 (상암동)",
    "phone": "02-304-1930",
    "capacity": 19,
    "lat": 37.57653804,
    "lon": 126.8943915,
    "zipcode": "03930",
    "fee": 0,
    "sat_yn": "N"
  },
  {
    "district": "마포구",
    "center_name": "옹달샘지역아동센터",
    "address": "서울 마포구 동교로 47, 4층 (망원동)",
    "phone": "02-6085-9413",
    "capacity": 34,
    "lat": 37.55304954,
    "lon": 126.9074162,
    "zipcode": "04022",
    "fee": 0,
    "sat_yn": "N"
  },
  {
    "district": "마포구",
    "center_name": "행복무지개지역아동센터",
    "address": "서울 마포구 성미산로10길 36, 2층 (서교동)",
    "phone": "070-7504-0238",
    "capacity": 19,
    "lat": 37.55784396,
    "lon": 126.9152548,
    "zipcode": "03998",
    "fee": 0,
    "sat_yn": "N"
  },
  {
    "district": "서대문구",
    "center_name": "1318나무를심는학교지역아동센터",
    "address": "서울 서대문구 북아현로14길 55, 2층 (충현동)",
    "phone": "070-8156-2147",
    "capacity": 19,
    "lat": 37.56389,
    "lon": 126.95786,
    "zipcode": "03749",
    "fee": 0,
    "sat_yn": "N"
  },
  {
    "district": "서대문구",
    "center_name": "구립가재울지역아동센터",
    "address": "서울 서대문구 거북골로 195-1, 2층 (북가좌동)",
    "phone": "02-376-1262",
    "capacity": 40,
    "lat": 37.57817,
    "lon": 126.90905,
    "zipcode": "03714",
    "fee": 0,
    "sat_yn": "N"
  },
  {
    "district": "서대문구",
    "center_name": "나무를심는학교지역아동센터",
    "address": "서울 서대문구 북아현로11가길 18, 2층 (북아현동)",
    "phone": "02-362-2147",
    "capacity": 29,
    "lat": 37.56288,
    "lon": 126.9548,
    "zipcode": "03762",
    "fee": 0,
    "sat_yn": "N"
  },
  {
    "district": "서대문구",
    "center_name": "신일지역아동센터",
    "address": "서울 서대문구 독립문로8길 107, 3층 (천연동, 신일교회)",
    "phone": "070-8268-8822",
    "capacity": 19,
    "lat": 37.56564,
    "lon": 126.9591,
    "zipcode": "03746",
    "fee": 0,
    "sat_yn": "N"
  },
  {
    "district": "서대문구",
    "center_name": "연가지역아동센터(새로핌지역아동센터)",
    "address": "서울 서대문구 증가로 118, 2층 (남가좌동)",
    "phone": "02-6015-6339",
    "capacity": 26,
    "lat": 37.57723,
    "lon": 126.9246,
    "zipcode": "03666",
    "fee": 0,
    "sat_yn": "N"
  },
  {
    "district": "서대문구",
    "center_name": "주원지역아동센터",
    "address": "서울 서대문구 홍제원6길 4, 1층 (홍제2동, 중앙어린이선교원)",
    "phone": "02-396-4483",
    "capacity": 31,
    "lat": 37.58661,
    "lon": 126.94752,
    "zipcode": "03632",
    "fee": 0,
    "sat_yn": "N"
  },
  {
    "district": "서초구",
    "center_name": "구립방배동지역아동센터",
    "address": "서울 서초구 서초대로 59, 2층 (방배동, 경은빌딩)",
    "phone": "02-3478-1027",
    "capacity": 30,
    "lat": 37.48649139,
    "lon": 126.9887991,
    "zipcode": "06570",
    "fee": 0,
    "sat_yn": "N"
  },
  {
    "district": "서초구",
    "center_name": "구립우면동지역아동센터",
    "address": "서울 서초구 바우뫼로6길 16, 3층 (우면동)",
    "phone": "02-573-9811",
    "capacity": 30,
    "lat": 37.46962449,
    "lon": 127.025926,
    "zipcode": "06763",
    "fee": 0,
    "sat_yn": "N"
  },
  {
    "district": "서초구",
    "center_name": "서초지역아동센터",
    "address": "서울 서초구 방배천로8길 35-3, 2층 (방배동)",
    "phone": "02-522-9526",
    "capacity": 35,
    "lat": 37.48060967,
    "lon": 126.9845974,
    "zipcode": "06691",
    "fee": 0,
    "sat_yn": "N"
  },
  {
    "district": "서초구",
    "center_name": "여의칸지역아동센터",
    "address": "서울 서초구 서초대로 53, 2층 (방배동)",
    "phone": "02-588-1519",
    "capacity": 26,
    "lat": 37.48633811,
    "lon": 126.9882162,
    "zipcode": "06570",
    "fee": 0,
    "sat_yn": "Y"
  },
  {
    "district": "서초구",
    "center_name": "우면지역아동센터",
    "address": "서울 서초구 성촌1길 26, 201호 (우면동, 삼성프라자 1)",
    "phone": "02-537-9871",
    "capacity": 30,
    "lat": 37.46546953,
    "lon": 127.0214585,
    "zipcode": "06764",
    "fee": 0,
    "sat_yn": "Y"
  },
  {
    "district": "서초구",
    "center_name": "점프지역아동센터",
    "address": "서울 서초구 언남12길 8, 1층 (양재동, 태민빌딩)",
    "phone": "02-6401-6998",
    "capacity": 25,
    "lat": 37.4739248,
    "lon": 127.0444737,
    "zipcode": "06781",
    "fee": 0,
    "sat_yn": "N"
  },
  {
    "district": "서초구",
    "center_name": "큰사랑공부방지역아동센터",
    "address": "서울 서초구 방배로13길 62, 202호 (방배동)",
    "phone": "02-585-8185",
    "capacity": 19,
    "lat": 37.48209243,
    "lon": 126.9931603,
    "zipcode": "06685",
    "fee": 0,
    "sat_yn": "Y"
  },
  {
    "district": "서초구",
    "center_name": "하나복지지역아동센터",
    "address": "서울 서초구 방배천로18길 20, 4층 (방배동)",
    "phone": "02-523-0153",
    "capacity": 19,
    "lat": 37.48260951,
    "lon": 126.9837988,
    "zipcode": "06677",
    "fee": 0,
    "sat_yn": "Y"
  },
  {
    "district": "성동구",
    "center_name": "구립마장꿈이랑지역아동센터",
    "address": "서울 성동구 청계천로10다길 34-14, 3층 (마장동, 한샘아이앤씨)",
    "phone": "02-2294-5694",
    "capacity": 32,
    "lat": 37.56944,
    "lon": 127.03526,
    "zipcode": "04704",
    "fee": 0,
    "sat_yn": "N"
  },
  {
    "district": "성동구",
    "center_name": "꿈터지역아동센터",
    "address": "서울 성동구 금호산길 61, 201호 (금호동2가, 동원빌딩)",
    "phone": "02-2236-8796",
    "capacity": 32,
    "lat": 37.55389,
    "lon": 127.01848,
    "zipcode": "04722",
    "fee": 0,
    "sat_yn": "N"
  },
  {
    "district": "성동구",
    "center_name": "도깨비방망이지역아동센터",
    "address": "서울 성동구 성덕정길 70, 2층 (성수동1가)",
    "phone": "02-465-7251",
    "capacity": 29,
    "lat": 37.53789,
    "lon": 127.05124,
    "zipcode": "04775",
    "fee": 0,
    "sat_yn": "Y"
  },
  {
    "district": "성동구",
    "center_name": "라온지역아동센터",
    "address": "서울 성동구 동일로 245, 3층 (송정동)",
    "phone": "02-469-1700",
    "capacity": 33,
    "lat": 37.55363,
    "lon": 127.0702,
    "zipcode": "04800",
    "fee": 0,
    "sat_yn": "N"
  },
  {
    "district": "성동구",
    "center_name": "무학지역아동센터",
    "address": "서울 성동구 왕십리로31나길 29, 2층 (하왕십리동)",
    "phone": "02-2294-0388",
    "capacity": 29,
    "lat": 37.56282,
    "lon": 127.02794,
    "zipcode": "04710",
    "fee": 0,
    "sat_yn": "N"
  },
  {
    "district": "성동구",
    "center_name": "성동좋은이웃지역아동센터",
    "address": "서울 성동구 용답중앙길 94, 2층 (용답동)",
    "phone": "02-6052-5440",
    "capacity": 35,
    "lat": 37.56191,
    "lon": 127.05509,
    "zipcode": "04805",
    "fee": 0,
    "sat_yn": "N"
  },
  {
    "district": "성동구",
    "center_name": "숲지역아동센터",
    "address": "서울 성동구 왕십리로 257, 6층 (행당동)",
    "phone": "02-2291-9442",
    "capacity": 29,
    "lat": 37.55932,
    "lon": 127.03217,
    "zipcode": "04714",
    "fee": 0,
    "sat_yn": "N"
  },
  {
    "district": "성동구",
    "center_name": "응봉지역아동센터",
    "address": "서울 성동구 독서당로60나길 15, 1층 (응봉동)",
    "phone": "02-2298-6618",
    "capacity": 19,
    "lat": 37.54895,
    "lon": 127.0319,
    "zipcode": "04742",
    "fee": 0,
    "sat_yn": "N"
  },
  {
    "district": "성동구",
    "center_name": "중동지역아동센터",
    "address": "서울 성동구 서울숲6길 15 (성수동1가, 중동교회)",
    "phone": "02-498-8544",
    "capacity": 29,
    "lat": 37.54766,
    "lon": 127.04321,
    "zipcode": "04768",
    "fee": 0,
    "sat_yn": "N"
  },
  {
    "district": "성북구",
    "center_name": "구립길음동꿈나무키우미돌봄센터",
    "address": "서울 성북구 서경로6길 70, 4층 (길음동)",
    "phone": "02-910-7708",
    "capacity": 49,
    "lat": 37.60666,
    "lon": 127.01948,
    "zipcode": "02720",
    "fee": 50000,
    "sat_yn": "N"
  },
  {
    "district": "성북구",
    "center_name": "구립석관동꿈나무키우미돌봄센터",
    "address": "서울 성북구 한천로79길 14-14 (석관동)",
    "phone": "02-959-8790",
    "capacity": 35,
    "lat": 37.61144,
    "lon": 127.06088,
    "zipcode": "02783",
    "fee": 0,
    "sat_yn": "N"
  },
  {
    "district": "성북구",
    "center_name": "구립종암동꿈나무키우미돌봄센터",
    "address": "서울 성북구 종암로19길 18, B1층 (종암동)",
    "phone": "070-4348-2084",
    "capacity": 49,
    "lat": 37.59875,
    "lon": 127.03375,
    "zipcode": "02804",
    "fee": 0,
    "sat_yn": "N"
  },
  {
    "district": "성북구",
    "center_name": "꿈나래지역아동센터",
    "address": "서울 성북구 정릉로 282, 3층 (정릉동)",
    "phone": "02-913-8182",
    "capacity": 39,
    "lat": 37.60314,
    "lon": 127.01455,
    "zipcode": "02815",
    "fee": 0,
    "sat_yn": "N"
  },
  {
    "district": "성북구",
    "center_name": "꿈터지역아동센터",
    "address": "서울 성북구 삼선교로 54, 203호 (삼선동3가)",
    "phone": "02-742-3384",
    "capacity": 42,
    "lat": 37.58853,
    "lon": 127.01175,
    "zipcode": "02863",
    "fee": 0,
    "sat_yn": "N"
  },
  {
    "district": "성북구",
    "center_name": "다솔지역아동센터",
    "address": "서울 성북구 장월로 89-10 (장위동)",
    "phone": "02-909-0739",
    "capacity": 42,
    "lat": 37.61408,
    "lon": 127.04825,
    "zipcode": "02756",
    "fee": 0,
    "sat_yn": "N"
  },
  {
    "district": "성북구",
    "center_name": "동소문행복한홈스쿨지역아동센터",
    "address": "서울 성북구 아리랑로7길 11, B102",
    "phone": "02-927-6377",
    "capacity": 33,
    "lat": 37.59723,
    "lon": 127.01407,
    "zipcode": "02826",
    "fee": 0,
    "sat_yn": "N"
  },
  {
    "district": "성북구",
    "center_name": "마가렛지역아동센터",
    "address": "서울 성북구 성북로23길 22-13 (성북동)",
    "phone": "02-741-3029",
    "capacity": 19,
    "lat": 37.5932,
    "lon": 126.99446,
    "zipcode": "02879",
    "fee": 0,
    "sat_yn": "N"
  },
  {
    "district": "성북구",
    "center_name": "마고네지역아동센터",
    "address": "서울 성북구 성북로8길 50, 105동 303호",
    "phone": "02-765-2770",
    "capacity": 19,
    "lat": 37.59263,
    "lon": 127.00669,
    "zipcode": "02834",
    "fee": 0,
    "sat_yn": "N"
  },
  {
    "district": "성북구",
    "center_name": "목자지역아동센터",
    "address": "서울 성북구 종암로36길 53, 3층 (하월곡동)",
    "phone": "02-913-8733",
    "capacity": 19,
    "lat": 37.60617,
    "lon": 127.03446,
    "zipcode": "02739",
    "fee": 0,
    "sat_yn": "N"
  },
  {
    "district": "성북구",
    "center_name": "밤골아이네공부방지역아동센터",
    "address": "서울 성북구 화랑로1길 26-3 (하월곡동)",
    "phone": "02-942-1870",
    "capacity": 45,
    "lat": 37.60443,
    "lon": 127.03355,
    "zipcode": "02740",
    "fee": 0,
    "sat_yn": "N"
  },
  {
    "district": "성북구",
    "center_name": "비전트리지역아동센터",
    "address": "서울 성북구 장월로 28 (장위동)",
    "phone": "02-919-9290",
    "capacity": 39,
    "lat": 37.60885989,
    "lon": 127.0476082,
    "zipcode": "02769",
    "fee": 0,
    "sat_yn": "N"
  },
  {
    "district": "성북구",
    "center_name": "사랑지역아동센터",
    "address": "서울 성북구 보국문로17길 8, 2층 (정릉동)",
    "phone": "02-913-8563",
    "capacity": 49,
    "lat": 37.60983,
    "lon": 127.00484,
    "zipcode": "02708",
    "fee": 0,
    "sat_yn": "N"
  },
  {
    "district": "성북구",
    "center_name": "삼성지역아동센터",
    "address": "서울 성북구 동소문로34길 24, 상가 304호",
    "phone": "02-921-8411",
    "capacity": 25,
    "lat": 37.60097,
    "lon": 127.0243,
    "zipcode": "02807",
    "fee": 0,
    "sat_yn": "N"
  },
  {
    "district": "성북구",
    "center_name": "성광지역아동센터",
    "address": "서울 성북구 보국문로16길 87, 2층 (정릉동)",
    "phone": "02-911-4207",
    "capacity": 35,
    "lat": 37.61382,
    "lon": 127.0103,
    "zipcode": "02711",
    "fee": 0,
    "sat_yn": "N"
  },
  {
    "district": "성북구",
    "center_name": "성모의집지역아동센터",
    "address": "서울 성북구 보국문로38길 25-2, 3층 (정릉동)",
    "phone": "02-909-0890",
    "capacity": 19,
    "lat": 37.61542,
    "lon": 127.00263,
    "zipcode": "02705",
    "fee": 0,
    "sat_yn": "N"
  },
  {
    "district": "성북구",
    "center_name": "시습지역아동센터",
    "address": "서울 성북구 보국문로16가길 43-13, 103호",
    "phone": "02-923-0910",
    "capacity": 19,
    "lat": 37.61229,
    "lon": 127.01106,
    "zipcode": "02717",
    "fee": 0,
    "sat_yn": "N"
  },
  {
    "district": "성북구",
    "center_name": "아낌없이주는나무지역아동센터",
    "address": "서울 성북구 종암로 107, 5층 (종암동)",
    "phone": "02-909-0775",
    "capacity": 19,
    "lat": 37.59651,
    "lon": 127.03626,
    "zipcode": "02800",
    "fee": 0,
    "sat_yn": "N"
  },
  {
    "district": "성북구",
    "center_name": "월곡지역아동센터",
    "address": "서울 성북구 정릉로52길 22, 401호 (돈암동)",
    "phone": "02-914-4302",
    "capacity": 27,
    "lat": 37.60513,
    "lon": 127.02963,
    "zipcode": "02734",
    "fee": 0,
    "sat_yn": "N"
  },
  {
    "district": "성북구",
    "center_name": "장위지역아동센터 밀알학교",
    "address": "서울 성북구 돌곶이로 157, 4층 (장위동)",
    "phone": "02-916-3004",
    "capacity": 41,
    "lat": 37.61546,
    "lon": 127.05107,
    "zipcode": "02767",
    "fee": 0,
    "sat_yn": "N"
  },
  {
    "district": "성북구",
    "center_name": "장위희망지역아동센터",
    "address": "서울 성북구 장위로15길 48, 2층 (장위동)",
    "phone": "02-916-7374",
    "capacity": 24,
    "lat": 37.61599,
    "lon": 127.04292,
    "zipcode": "02755",
    "fee": 0,
    "sat_yn": "N"
  },
  {
    "district": "성북구",
    "center_name": "큰나무학교지역아동센터",
    "address": "서울 성북구 보문로30가길 41-6, 1층",
    "phone": "02-923-7509",
    "capacity": 43,
    "lat": 37.58939,
    "lon": 127.02238,
    "zipcode": "02843",
    "fee": 0,
    "sat_yn": "N"
  },
  {
    "district": "성북구",
    "center_name": "푸른하늘지역아동센터",
    "address": "서울 성북구 화랑로38길 21, 3층 (석관동)",
    "phone": "070-8162-9757",
    "capacity": 27,
    "lat": 37.61109,
    "lon": 127.05977,
    "zipcode": "02783",
    "fee": 0,
    "sat_yn": "N"
  },
  {
    "district": "송파구",
    "center_name": "R&T지역아동센터",
    "address": "서울 송파구 마천로 99, 2층 (오금동)",
    "phone": "02-409-6612",
    "capacity": 37,
    "lat": 37.50644,
    "lon": 127.13099,
    "zipcode": "05655",
    "fee": 0,
    "sat_yn": "Y"
  },
  {
    "district": "송파구",
    "center_name": "구립문정1동지역아동센터",
    "address": "서울 송파구 송이로32길 22, 2층 (문정동)",
    "phone": "02-431-1319",
    "capacity": 35,
    "lat": 37.48816348,
    "lon": 127.1273205,
    "zipcode": "05803",
    "fee": 0,
    "sat_yn": "N"
  },
  {
    "district": "송파구",
    "center_name": "구립오금동지역아동센터",
    "address": "서울 송파구 동남로24길 37, 2층 (오금동)",
    "phone": "02-404-2159",
    "capacity": 32,
    "lat": 37.49819,
    "lon": 127.13985,
    "zipcode": "05742",
    "fee": 0,
    "sat_yn": "N"
  },
  {
    "district": "송파구",
    "center_name": "그린리버지역아동센터",
    "address": "서울 송파구 성내천로 189, 3층 (마천동)",
    "phone": "02-421-1006",
    "capacity": 35,
    "lat": 37.50146,
    "lon": 127.14933,
    "zipcode": "05745",
    "fee": 0,
    "sat_yn": "N"
  },
  {
    "district": "송파구",
    "center_name": "기쁨지역아동센터",
    "address": "서울 송파구 송이로34길 55, 1층 (문정동)",
    "phone": "02-430-7058",
    "capacity": 25,
    "lat": 37.48445,
    "lon": 127.1276,
    "zipcode": "05809",
    "fee": 0,
    "sat_yn": "N"
  },
  {
    "district": "송파구",
    "center_name": "꿈꾸는지역아동센터",
    "address": "서울 송파구 동남로 280, 4층 (오금동)",
    "phone": "02-449-5863",
    "capacity": 31,
    "lat": 37.50043,
    "lon": 127.13702,
    "zipcode": "05740",
    "fee": 0,
    "sat_yn": "Y"
  },
  {
    "district": "송파구",
    "center_name": "누리미지역아동센터",
    "address": "서울 송파구 성내천로 237, 2층 (마천2동)",
    "phone": "02-408-2442",
    "capacity": 29,
    "lat": 37.49944,
    "lon": 127.15376,
    "zipcode": "05747",
    "fee": 0,
    "sat_yn": "Y"
  },
  {
    "district": "송파구",
    "center_name": "도담지역아동센터",
    "address": "서울 송파구 바람드리길 41, 202호",
    "phone": "02-475-7710",
    "capacity": 25,
    "lat": 37.53716,
    "lon": 127.12059,
    "zipcode": "05518",
    "fee": 0,
    "sat_yn": "N"
  },
  {
    "district": "송파구",
    "center_name": "삼전지역아동센터",
    "address": "서울 송파구 삼전로10길 3, 2층 (삼전동)",
    "phone": "02-6959-9955",
    "capacity": 19,
    "lat": 37.50604,
    "lon": 127.09008,
    "zipcode": "05599",
    "fee": 0,
    "sat_yn": "N"
  },
  {
    "district": "송파구",
    "center_name": "새비전지역아동센터",
    "address": "서울 송파구 거마로7길 44, 2층 (거여동)",
    "phone": "070-8952-8028",
    "capacity": 25,
    "lat": 37.49777,
    "lon": 127.1415,
    "zipcode": "05736",
    "fee": 0,
    "sat_yn": "Y"
  },
  {
    "district": "송파구",
    "center_name": "솔바람지역아동센터",
    "address": "서울 송파구 성내천로 271, 3층 (마천동)",
    "phone": "02-401-1391",
    "capacity": 49,
    "lat": 37.49632,
    "lon": 127.15448,
    "zipcode": "05749",
    "fee": 0,
    "sat_yn": "N"
  },
  {
    "district": "송파구",
    "center_name": "솔빛지역아동센터",
    "address": "서울 송파구 성내천로18길 1, 2층 (거여동)",
    "phone": "02-431-7979",
    "capacity": 33,
    "lat": 37.49886,
    "lon": 127.14303,
    "zipcode": "05736",
    "fee": 0,
    "sat_yn": "N"
  },
  {
    "district": "송파구",
    "center_name": "송파열매지역아동센터",
    "address": "서울 송파구 한가람로 16길 7, 302호 (풍납동)",
    "phone": "02-489-5650",
    "capacity": 25,
    "lat": 37.53154,
    "lon": 127.11596,
    "zipcode": "05532",
    "fee": 0,
    "sat_yn": "Y"
  },
  {
    "district": "송파구",
    "center_name": "송파희망세상지역아동센터",
    "address": "서울 송파구 오금로64길 4, 2층 (거여동)",
    "phone": "02-6414-5515",
    "capacity": 33,
    "lat": 37.49256,
    "lon": 127.14733,
    "zipcode": "05773",
    "fee": 0,
    "sat_yn": "N"
  },
  {
    "district": "송파구",
    "center_name": "아름다운꿈지역아동센터",
    "address": "서울 송파구 마천로 305, 3층 (마천동)",
    "phone": "02-3402-1357",
    "capacity": 48,
    "lat": 37.49581,
    "lon": 127.15,
    "zipcode": "05757",
    "fee": 0,
    "sat_yn": "Y"
  },
  {
    "district": "송파구",
    "center_name": "아름다운지역아동센터",
    "address": "서울 송파구 중대로16길 9, 301호 (가락동)",
    "phone": "02-449-4859",
    "capacity": 25,
    "lat": 37.48441,
    "lon": 126.91486,
    "zipcode": "05824",
    "fee": 0,
    "sat_yn": "N"
  },
  {
    "district": "송파구",
    "center_name": "푸른솔지역아동센터",
    "address": "서울 송파구 풍성로 6, 2층 (풍납동)",
    "phone": "02-6014-0075",
    "capacity": 25,
    "lat": 37.53525,
    "lon": 127.11342,
    "zipcode": "05525",
    "fee": 0,
    "sat_yn": "N"
  },
  {
    "district": "송파구",
    "center_name": "해밀지역아동센터",
    "address": "서울 송파구 문정로 259, 401호 (오금동)",
    "phone": "02-401-1557",
    "capacity": 25,
    "lat": 37.50133,
    "lon": 127.14212,
    "zipcode": "05731",
    "fee": 0,
    "sat_yn": "N"
  },
  {
    "district": "송파구",
    "center_name": "해오름지역아동센터",
    "address": "서울 송파구 백제고분로40길 23, 2층 (석촌동)",
    "phone": "02-413-7661",
    "capacity": 25,
    "lat": 37.50267,
    "lon": 127.10732,
    "zipcode": "05686",
    "fee": 0,
    "sat_yn": "N"
  },
  {
    "district": "양천구",
    "center_name": "강서성결행복한홈스쿨지역아동센터",
    "address": "서울 양천구 월정로19길 11, 3층 (신월동)",
    "phone": "02-2694-0205",
    "capacity": 29,
    "lat": 37.52889,
    "lon": 126.83767,
    "zipcode": "07925",
    "fee": 0,
    "sat_yn": "N"
  },
  {
    "district": "양천구",
    "center_name": "겨레얼학교지역아동센터",
    "address": "서울 양천구 가로공원로60길 15 (신월동)",
    "phone": "02-2602-9560",
    "capacity": 40,
    "lat": 37.53395,
    "lon": 126.82525,
    "zipcode": "07911",
    "fee": 0,
    "sat_yn": "N"
  },
  {
    "district": "양천구",
    "center_name": "그리스도의교회지역아동센터",
    "address": "서울 양천구 목동중앙남로 57-7, 2층 (목4동)",
    "phone": "02-2653-8009",
    "capacity": 35,
    "lat": 37.53872,
    "lon": 126.86571,
    "zipcode": "07958",
    "fee": 0,
    "sat_yn": "Y"
  },
  {
    "district": "양천구",
    "center_name": "기린청소년지역아동센터",
    "address": "서울 양천구 목동중앙본로 50, 4층 (목동)",
    "phone": "02-2647-7179",
    "capacity": 23,
    "lat": 37.54117,
    "lon": 126.87121,
    "zipcode": "07976",
    "fee": 0,
    "sat_yn": "N"
  },
  {
    "district": "양천구",
    "center_name": "꿈나무들의둥지지역아동센터",
    "address": "서울 양천구 목동중앙북로8길 104, 2층 (목동)",
    "phone": "02-2651-2303",
    "capacity": 35,
    "lat": 37.54423,
    "lon": 126.86637,
    "zipcode": "07949",
    "fee": 0,
    "sat_yn": "N"
  },
  {
    "district": "양천구",
    "center_name": "다니엘청소년지역아동센터",
    "address": "서울 양천구 남부순환로 374, 3층 (신월동)",
    "phone": "02-2065-7105",
    "capacity": 19,
    "lat": 37.53311,
    "lon": 126.83215,
    "zipcode": "07920",
    "fee": 0,
    "sat_yn": "Y"
  },
  {
    "district": "양천구",
    "center_name": "드림지역아동센터",
    "address": "서울 양천구 남부순환로61길 13, 201호 (신월동)",
    "phone": "02-2602-3338",
    "capacity": 25,
    "lat": 37.53139,
    "lon": 126.83318,
    "zipcode": "07921",
    "fee": 0,
    "sat_yn": "N"
  },
  {
    "district": "양천구",
    "center_name": "물댄동산목동지역아동센터",
    "address": "서울 양천구 목동로3길 57 (신정동)",
    "phone": "02-2062-6377",
    "capacity": 35,
    "lat": 37.50947,
    "lon": 126.86218,
    "zipcode": "08100",
    "fee": 0,
    "sat_yn": "N"
  },
  {
    "district": "양천구",
    "center_name": "비둘기지역아동센터",
    "address": "서울 양천구 지양로3길 7, 2층 (신월동)",
    "phone": "02-2694-7478",
    "capacity": 25,
    "lat": 37.5185,
    "lon": 126.83624,
    "zipcode": "08042",
    "fee": 0,
    "sat_yn": "N"
  },
  {
    "district": "양천구",
    "center_name": "사무엘지역아동센터",
    "address": "서울 양천구 남부순환로54길 9, 1층 (신월동)",
    "phone": "02-2692-3710",
    "capacity": 19,
    "lat": 37.5332,
    "lon": 126.82887,
    "zipcode": "07912",
    "fee": 0,
    "sat_yn": "N"
  },
  {
    "district": "양천구",
    "center_name": "샘물지역아동센터",
    "address": "서울 양천구 목동중앙북로 91, 2층 (목동)",
    "phone": "02-2651-2122",
    "capacity": 23,
    "lat": 37.54638,
    "lon": 126.87329,
    "zipcode": "07968",
    "fee": 0,
    "sat_yn": "Y"
  },
  {
    "district": "양천구",
    "center_name": "선한지역아동센터",
    "address": "서울 양천구 목동중앙남로16다길 28, 1층 (목동)",
    "phone": "02-2643-8584",
    "capacity": 29,
    "lat": 37.54369,
    "lon": 126.86422,
    "zipcode": "07951",
    "fee": 0,
    "sat_yn": "Y"
  },
  {
    "district": "양천구",
    "center_name": "섬나지역아동센터",
    "address": "서울 양천구 은행정로 32, 3층 (신정동)",
    "phone": "02-6403-8046",
    "capacity": 34,
    "lat": 37.52257,
    "lon": 126.85972,
    "zipcode": "08021",
    "fee": 0,
    "sat_yn": "N"
  },
  {
    "district": "양천구",
    "center_name": "성공회푸른나래지역아동센터",
    "address": "서울 양천구 남부순환로 46길 20, 2층",
    "phone": "02-2694-7909",
    "capacity": 29,
    "lat": 37.5337,
    "lon": 126.82763,
    "zipcode": "07912",
    "fee": 0,
    "sat_yn": "N"
  },
  {
    "district": "양천구",
    "center_name": "아름드리지역아동센터",
    "address": "서울 양천구 신목로2길 11, 상가 304호 (신정동)",
    "phone": "02-2643-1296",
    "capacity": 18,
    "lat": 37.51901,
    "lon": 126.87608,
    "zipcode": "08015",
    "fee": 0,
    "sat_yn": "N"
  },
  {
    "district": "양천구",
    "center_name": "암미신월지역아동센터",
    "address": "서울 양천구 가로공원로55길 16, 201호 (신월동)",
    "phone": "02-2602-3407",
    "capacity": 35,
    "lat": 37.53594,
    "lon": 126.82428,
    "zipcode": "07909",
    "fee": 0,
    "sat_yn": "Y"
  },
  {
    "district": "양천구",
    "center_name": "예람지역아동센터",
    "address": "서울 양천구 화곡로4길 28 (신월동)",
    "phone": "02-2605-7799",
    "capacity": 35,
    "lat": 37.53699,
    "lon": 126.82827,
    "zipcode": "07905",
    "fee": 0,
    "sat_yn": "N"
  },
  {
    "district": "양천구",
    "center_name": "옹달샘지역아동센터",
    "address": "서울 양천구 오목로 15, 203호 (신월동)",
    "phone": "02-2690-1813",
    "capacity": 29,
    "lat": 37.52155,
    "lon": 126.83937,
    "zipcode": "07928",
    "fee": 0,
    "sat_yn": "N"
  },
  {
    "district": "양천구",
    "center_name": "우리지역아동센터",
    "address": "서울 양천구 중앙로51길 36, 2층 (신월동)",
    "phone": "070-4306-6712",
    "capacity": 31,
    "lat": 37.52441,
    "lon": 126.84657,
    "zipcode": "07934",
    "fee": 0,
    "sat_yn": "N"
  },
  {
    "district": "양천구",
    "center_name": "초록나무학교지역아동센터",
    "address": "서울 양천구 오목로38길 29, 2층 (신정동)",
    "phone": "070-7397-0312",
    "capacity": 19,
    "lat": 37.52244,
    "lon": 126.85666,
    "zipcode": "08027",
    "fee": 0,
    "sat_yn": "N"
  },
  {
    "district": "양천구",
    "center_name": "한누리학교지역아동센터",
    "address": "서울 양천구 신월로 117, 2층 (신월동)",
    "phone": "02-2695-6507",
    "capacity": 29,
    "lat": 37.51645,
    "lon": 126.83676,
    "zipcode": "08044",
    "fee": 0,
    "sat_yn": "N"
  },
  {
    "district": "영등포구",
    "center_name": "구립대림2동지역아동센터",
    "address": "서울 영등포구 대림로23길 27, 3층 (대림동)",
    "phone": "02-6677-0909",
    "capacity": 26,
    "lat": 37.49261965,
    "lon": 126.8980785,
    "zipcode": "07419",
    "fee": 0,
    "sat_yn": "N"
  },
  {
    "district": "영등포구",
    "center_name": "구립푸르름지역아동센터",
    "address": "서울 영등포구 영등포로64길 15 (신길동)",
    "phone": "02-841-0818",
    "capacity": 35,
    "lat": 37.51365776,
    "lon": 126.9170779,
    "zipcode": "07317",
    "fee": 0,
    "sat_yn": "N"
  },
  {
    "district": "영등포구",
    "center_name": "다사랑영등포지역아동센터",
    "address": "서울 영등포구 도신로56길 12, 2층 (신길동)",
    "phone": "02-836-7111",
    "capacity": 27,
    "lat": 37.510732,
    "lon": 126.915947,
    "zipcode": "07362",
    "fee": 0,
    "sat_yn": "N"
  },
  {
    "district": "영등포구",
    "center_name": "돌봄누리지역아동센터",
    "address": "서울 영등포구 디지털로69가길 2, 2층 (대림동)",
    "phone": "02-842-7179",
    "capacity": 39,
    "lat": 37.49416237,
    "lon": 126.9041247,
    "zipcode": "07429",
    "fee": 0,
    "sat_yn": "N"
  },
  {
    "district": "영등포구",
    "center_name": "두날개지역아동센터",
    "address": "서울 영등포구 가마산로 333, 3층 (대림동)",
    "phone": "02-824-3796",
    "capacity": 35,
    "lat": 37.49943348,
    "lon": 126.8962829,
    "zipcode": "07378",
    "fee": 0,
    "sat_yn": "N"
  },
  {
    "district": "영등포구",
    "center_name": "디모데지역아동센터",
    "address": "서울 영등포구 영등포로86길 17, 3~4층 (신길동)",
    "phone": "02-841-8333",
    "capacity": 33,
    "lat": 37.51132077,
    "lon": 126.9231204,
    "zipcode": "07355",
    "fee": 0,
    "sat_yn": "N"
  },
  {
    "district": "영등포구",
    "center_name": "민들레학교지역아동센터",
    "address": "서울 영등포구 버드나루로14가길 14 (당산2동)",
    "phone": "02-2672-6009",
    "capacity": 35,
    "lat": 37.52653497,
    "lon": 126.9096939,
    "zipcode": "07230",
    "fee": 0,
    "sat_yn": "N"
  },
  {
    "district": "영등포구",
    "center_name": "사르넬리지역아동센터",
    "address": "서울 영등포구 대림로22길 40, 3층 (대림동)",
    "phone": "02-846-2094",
    "capacity": 29,
    "lat": 37.49566496,
    "lon": 126.9047798,
    "zipcode": "07428",
    "fee": 0,
    "sat_yn": "N"
  },
  {
    "district": "영등포구",
    "center_name": "선유지역아동센터",
    "address": "서울 영등포구 영등포로 63, 2층 (양평동1가)",
    "phone": "02-2679-8881",
    "capacity": 32,
    "lat": 37.52270164,
    "lon": 126.8887666,
    "zipcode": "07272",
    "fee": 0,
    "sat_yn": "N"
  },
  {
    "district": "영등포구",
    "center_name": "솔로몬지역아동센터",
    "address": "서울 영등포구 양평로30가길 19, 204호 (양평동6가)",
    "phone": "02-2678-7934",
    "capacity": 32,
    "lat": 37.54247078,
    "lon": 126.8904127,
    "zipcode": "07201",
    "fee": 0,
    "sat_yn": "N"
  },
  {
    "district": "영등포구",
    "center_name": "영등포좋은나무지역아동센터",
    "address": "서울 영등포구 양산로 90-1, 2층 (당산동2가)",
    "phone": "02-2679-5649",
    "capacity": 29,
    "lat": 37.52440483,
    "lon": 126.8930839,
    "zipcode": "07263",
    "fee": 0,
    "sat_yn": "N"
  },
  {
    "district": "영등포구",
    "center_name": "유스비전스쿨 청소년전용지역아동센터",
    "address": "서울 영등포구 영등포로86길 17, 1층 (신길동)",
    "phone": "02-841-8339",
    "capacity": 14,
    "lat": 37.51132077,
    "lon": 126.9231204,
    "zipcode": "07355",
    "fee": 0,
    "sat_yn": "N"
  },
  {
    "district": "영등포구",
    "center_name": "조이드림지역아동센터",
    "address": "서울 영등포구 당산로38길 9-3, 1층 (당산동4가)",
    "phone": "070-4257-9191",
    "capacity": 19,
    "lat": 37.52922531,
    "lon": 126.8994756,
    "zipcode": "07220",
    "fee": 0,
    "sat_yn": "N"
  },
  {
    "district": "영등포구",
    "center_name": "쪼물왕국지역아동센터",
    "address": "서울 영등포구 선유로53길 34-14, 1층 (양평동4가)",
    "phone": "02-6408-7205",
    "capacity": 35,
    "lat": 37.53887419,
    "lon": 126.8956046,
    "zipcode": "07206",
    "fee": 0,
    "sat_yn": "Y"
  },
  {
    "district": "영등포구",
    "center_name": "푸른공부방지역아동센터",
    "address": "서울 영등포구 양산로 138-1, 4층 (당산동1가)",
    "phone": "02-2672-2572",
    "capacity": 35,
    "lat": 37.5236078,
    "lon": 126.898279,
    "zipcode": "07265",
    "fee": 0,
    "sat_yn": "Y"
  },
  {
    "district": "영등포구",
    "center_name": "한믿음지역아동센터",
    "address": "서울 영등포구 대방천로12길 5-2, 3층 (신길동)",
    "phone": "070-7561-9229",
    "capacity": 19,
    "lat": 37.49860676,
    "lon": 126.9089061,
    "zipcode": "07436",
    "fee": 0,
    "sat_yn": "N"
  },
  {
    "district": "영등포구",
    "center_name": "한울지역아동센터",
    "address": "서울 영등포구 가마산로46가길 10, 2층 (대림동)",
    "phone": "070-8807-6026",
    "capacity": 21,
    "lat": 37.5011581,
    "lon": 126.8996254,
    "zipcode": "07402",
    "fee": 0,
    "sat_yn": "N"
  },
  {
    "district": "영등포구",
    "center_name": "햇살가득지역아동센터",
    "address": "서울 영등포구 도신로15라길 2, 2층 (도림동)",
    "phone": "02-831-6595",
    "capacity": 33,
    "lat": 37.50702242,
    "lon": 126.8978818,
    "zipcode": "07374",
    "fee": 0,
    "sat_yn": "N"
  },
  {
    "district": "용산구",
    "center_name": "빛나라공부방지역아동센터",
    "address": "서울 용산구 신흥로36가길 1-4, 지층, 1층",
    "phone": "02-756-3045",
    "capacity": 28,
    "lat": 37.55098386,
    "lon": 126.9752111,
    "zipcode": "04324",
    "fee": 0,
    "sat_yn": "N"
  },
  {
    "district": "용산구",
    "center_name": "생명나무지역아동센터",
    "address": "서울 용산구 백범로43길 2, B1층 (효창동)",
    "phone": "02-719-5120",
    "capacity": 26,
    "lat": 37.54105,
    "lon": 126.95806,
    "zipcode": "04319",
    "fee": 0,
    "sat_yn": "N"
  },
  {
    "district": "용산구",
    "center_name": "소망을찾는이지역아동센터",
    "address": "서울 용산구 두텁바위로1길 70, 2층 (후암동)",
    "phone": "02-3789-1216",
    "capacity": 29,
    "lat": 37.54701,
    "lon": 126.97568,
    "zipcode": "04335",
    "fee": 0,
    "sat_yn": "Y"
  },
  {
    "district": "용산구",
    "center_name": "풍성한지역아동센터",
    "address": "서울 용산구 보광로5길 1-8, 2층 (보광동)",
    "phone": "02-794-4060",
    "capacity": 18,
    "lat": 37.52881,
    "lon": 126.99877,
    "zipcode": "04414",
    "fee": 0,
    "sat_yn": "N"
  },
  {
    "district": "용산구",
    "center_name": "한살림서울사회적협동조합용산지역아동센터",
    "address": "서울 용산구 효창원로94길 23, 4층 (청파동1가)",
    "phone": "02-711-8111",
    "capacity": 25,
    "lat": 37.5483,
    "lon": 126.96481,
    "zipcode": "04306",
    "fee": 0,
    "sat_yn": "N"
  },
  {
    "district": "은평구",
    "center_name": "갈현지역아동센터",
    "address": "서울 은평구 갈현로 282 (갈현동)",
    "phone": "02-356-7942",
    "capacity": 49,
    "lat": 37.6219,
    "lon": 126.91692,
    "zipcode": "03329",
    "fee": 0,
    "sat_yn": "N"
  },
  {
    "district": "은평구",
    "center_name": "공립벧엘지역아동센터",
    "address": "서울 은평구 연서로6길 7, 3층 (역촌동)",
    "phone": "02-351-3790",
    "capacity": 45,
    "lat": 37.60438,
    "lon": 126.91664,
    "zipcode": "03402",
    "fee": 0,
    "sat_yn": "N"
  },
  {
    "district": "은평구",
    "center_name": "광암지역아동센터",
    "address": "서울 은평구 가좌로7라길 43, 1층 (응암동)",
    "phone": "070-4025-0953",
    "capacity": 29,
    "lat": 37.58381,
    "lon": 126.91706,
    "zipcode": "03483",
    "fee": 0,
    "sat_yn": "N"
  },
  {
    "district": "은평구",
    "center_name": "광현지역아동센터",
    "address": "서울 은평구 연서로27길 31-7, 2층 (갈현동)",
    "phone": "02-385-9320",
    "capacity": 36,
    "lat": 37.61832,
    "lon": 126.91611,
    "zipcode": "03332",
    "fee": 0,
    "sat_yn": "N"
  },
  {
    "district": "은평구",
    "center_name": "구립광현청소년지역아동센터",
    "address": "서울 은평구 연서로27길 31-7, B1층 (갈현동)",
    "phone": "02-358-3004",
    "capacity": 34,
    "lat": 37.61832,
    "lon": 126.91611,
    "zipcode": "03332",
    "fee": 0,
    "sat_yn": "N"
  },
  {
    "district": "은평구",
    "center_name": "구립오병이어지역아동센터",
    "address": "서울 은평구 은평로12길 12-25 (응암동)",
    "phone": "02-6925-5019",
    "capacity": 20,
    "lat": 37.59947,
    "lon": 126.92438,
    "zipcode": "03462",
    "fee": 0,
    "sat_yn": "N"
  },
  {
    "district": "은평구",
    "center_name": "그루터기지역아동센터",
    "address": "서울 은평구 연서로21길 21-1, 2층 (갈현동)",
    "phone": "02-389-4443",
    "capacity": 29,
    "lat": 37.61499,
    "lon": 126.91557,
    "zipcode": "03335",
    "fee": 0,
    "sat_yn": "N"
  },
  {
    "district": "은평구",
    "center_name": "꿈이있는푸른학교지역아동센터",
    "address": "서울 은평구 응암로29길 15-2, 2~3층 (응암동)",
    "phone": "02-382-1496",
    "capacity": 49,
    "lat": 37.59668,
    "lon": 126.91737,
    "zipcode": "03455",
    "fee": 0,
    "sat_yn": "Y"
  },
  {
    "district": "은평구",
    "center_name": "남애지역아동센터",
    "address": "서울 은평구 진관4로 77, 702동 1층 (진관동)",
    "phone": "02-356-9327",
    "capacity": 19,
    "lat": 37.48441,
    "lon": 126.91486,
    "zipcode": "03303",
    "fee": 0,
    "sat_yn": "N"
  },
  {
    "district": "은평구",
    "center_name": "누리사랑지역아동센터",
    "address": "서울 은평구 증산로 401-18, 1층 (신사동)",
    "phone": "02-308-7982",
    "capacity": 49,
    "lat": 37.5921,
    "lon": 126.91268,
    "zipcode": "03442",
    "fee": 0,
    "sat_yn": "N"
  },
  {
    "district": "은평구",
    "center_name": "동그라미지역아동센터",
    "address": "서울 은평구 갈현로29길 62, 상가 2층 (갈현동)",
    "phone": "02-383-8883",
    "capacity": 29,
    "lat": 37.62433,
    "lon": 126.91627,
    "zipcode": "03318",
    "fee": 0,
    "sat_yn": "N"
  },
  {
    "district": "은평구",
    "center_name": "동방지역아동센터",
    "address": "서울 은평구 갈현로 29, 201호 (신사동)",
    "phone": "02-382-9387",
    "capacity": 19,
    "lat": 37.6006,
    "lon": 126.90999,
    "zipcode": "03435",
    "fee": 0,
    "sat_yn": "N"
  },
  {
    "district": "은평구",
    "center_name": "맑은지역아동센터",
    "address": "서울 은평구 진흥로9길 8-17, 2층 (역촌동)",
    "phone": "02-387-6988",
    "capacity": 29,
    "lat": 37.60634,
    "lon": 126.92168,
    "zipcode": "03404",
    "fee": 0,
    "sat_yn": "N"
  },
  {
    "district": "은평구",
    "center_name": "보물섬지역아동센터",
    "address": "서울 은평구 갈현로15길 46, 102호 (구산동)",
    "phone": "02-388-0145",
    "capacity": 29,
    "lat": 37.60968,
    "lon": 126.90667,
    "zipcode": "03428",
    "fee": 0,
    "sat_yn": "N"
  },
  {
    "district": "은평구",
    "center_name": "부림지역아동센터",
    "address": "서울 은평구 연서로37길 51, 가호 (불광동)",
    "phone": "02-387-9661",
    "capacity": 25,
    "lat": 37.62571,
    "lon": 126.92783,
    "zipcode": "03343",
    "fee": 0,
    "sat_yn": "N"
  },
  {
    "district": "은평구",
    "center_name": "비단산지역아동센터",
    "address": "서울 은평구 은평터널로 164, 상가 203호 (신사동)",
    "phone": "070-7716-0688",
    "capacity": 9,
    "lat": 37.59372,
    "lon": 126.90808,
    "zipcode": "03444",
    "fee": 0,
    "sat_yn": "N"
  },
  {
    "district": "은평구",
    "center_name": "비전스쿨지역아동센터",
    "address": "서울 은평구 가좌로7나길 17 (응암동)",
    "phone": "070-7502-4812",
    "capacity": 19,
    "lat": 37.58489,
    "lon": 126.91904,
    "zipcode": "03481",
    "fee": 0,
    "sat_yn": "N"
  },
  {
    "district": "은평구",
    "center_name": "샘지역아동센터",
    "address": "서울 은평구 연서로11길 7-2 (구산동)",
    "phone": "02-6205-5237",
    "capacity": 19,
    "lat": 37.60803,
    "lon": 126.91439,
    "zipcode": "03413",
    "fee": 0,
    "sat_yn": "N"
  },
  {
    "district": "은평구",
    "center_name": "소망의집지역아동센터",
    "address": "서울 은평구 역말로10길 30-1, 3층 (대조동)",
    "phone": "070-4139-5223",
    "capacity": 19,
    "lat": 37.60922,
    "lon": 126.92382,
    "zipcode": "03392",
    "fee": 0,
    "sat_yn": "N"
  },
  {
    "district": "은평구",
    "center_name": "은광지역아동센터",
    "address": "서울 은평구 녹번로 55, 3층 (녹번동)",
    "phone": "02-355-6184",
    "capacity": 49,
    "lat": 37.60631,
    "lon": 126.93064,
    "zipcode": "03376",
    "fee": 0,
    "sat_yn": "N"
  },
  {
    "district": "은평구",
    "center_name": "은평지역아동센터열린학교",
    "address": "서울 은평구 은평로 13길 12-1, B동 4층",
    "phone": "02-353-2268",
    "capacity": 19,
    "lat": 37.6013,
    "lon": 126.93305,
    "zipcode": "03383",
    "fee": 0,
    "sat_yn": "N"
  },
  {
    "district": "은평구",
    "center_name": "이레지역아동센터",
    "address": "서울 은평구 연서로 35, 4층 (역촌동)",
    "phone": "02-355-8680",
    "capacity": 43,
    "lat": 37.60227,
    "lon": 126.91558,
    "zipcode": "03421",
    "fee": 0,
    "sat_yn": "N"
  },
  {
    "district": "은평구",
    "center_name": "조은아이들지역아동센터",
    "address": "서울 은평구 통일로68길 15, 201~202호 (불광동)",
    "phone": "02-356-1453",
    "capacity": 32,
    "lat": 37.61283,
    "lon": 126.93021,
    "zipcode": "03355",
    "fee": 0,
    "sat_yn": "N"
  },
  {
    "district": "은평구",
    "center_name": "증산성산지역아동센터",
    "address": "서울 은평구 증산서길 90, 1층 (증산동)",
    "phone": "02-305-9200",
    "capacity": 49,
    "lat": 37.58418,
    "lon": 126.90732,
    "zipcode": "03499",
    "fee": 0,
    "sat_yn": "N"
  },
  {
    "district": "은평구",
    "center_name": "진관지역아동센터",
    "address": "서울 은평구 진관2로 29-12, 1층 (진관동)",
    "phone": "02-389-1083",
    "capacity": 19,
    "lat": 37.63573,
    "lon": 126.92013,
    "zipcode": "03306",
    "fee": 0,
    "sat_yn": "N"
  },
  {
    "district": "은평구",
    "center_name": "푸른꿈나무지역아동센터",
    "address": "서울 은평구 불광로 121, 3층 (불광동)",
    "phone": "02-389-0554",
    "capacity": 29,
    "lat": 37.61764,
    "lon": 126.93291,
    "zipcode": "03353",
    "fee": 0,
    "sat_yn": "N"
  },
  {
    "district": "은평구",
    "center_name": "풍성한지역아동센터",
    "address": "서울 은평구 은평터널로7길 2, 상가 201호 (신사동)",
    "phone": "02-358-5489",
    "capacity": 19,
    "lat": 37.59247,
    "lon": 126.90642,
    "zipcode": "03445",
    "fee": 0,
    "sat_yn": "N"
  },
  {
    "district": "은평구",
    "center_name": "행복한지역아동센터",
    "address": "서울 은평구 연서로 39, 2층 (역촌동)",
    "phone": "02-386-3246",
    "capacity": 36,
    "lat": 37.60274,
    "lon": 126.9155,
    "zipcode": "03418",
    "fee": 0,
    "sat_yn": "N"
  },
  {
    "district": "종로구",
    "center_name": "마로니에지역아동센터",
    "address": "서울 종로구 이화장길 94 (동숭동)",
    "phone": "02-6414-4768",
    "capacity": 19,
    "lat": 37.57953,
    "lon": 127.00517,
    "zipcode": "03088",
    "fee": 0,
    "sat_yn": "N"
  },
  {
    "district": "종로구",
    "center_name": "성터지역아동센터",
    "address": "서울 종로구 창신7가길 14-7 (창신동)",
    "phone": "02-763-3677",
    "capacity": 19,
    "lat": 37.57513,
    "lon": 127.00923,
    "zipcode": "03097",
    "fee": 0,
    "sat_yn": "N"
  },
  {
    "district": "종로구",
    "center_name": "세종지역아동센터",
    "address": "서울 종로구 통일로12길 10-14, 2층 (행촌동)",
    "phone": "02-730-9791",
    "capacity": 19,
    "lat": 37.57285,
    "lon": 126.96047,
    "zipcode": "03029",
    "fee": 0,
    "sat_yn": "N"
  },
  {
    "district": "종로구",
    "center_name": "연동지역아동센터",
    "address": "서울 종로구 대학로3길 9, 303호 (연지동)",
    "phone": "02-744-7270",
    "capacity": 29,
    "lat": 37.57399,
    "lon": 127.00132,
    "zipcode": "03128",
    "fee": 0,
    "sat_yn": "N"
  },
  {
    "district": "종로구",
    "center_name": "종로지역아동센터",
    "address": "서울 종로구 지봉로13길 82 (창신동)",
    "phone": "02-741-4980",
    "capacity": 19,
    "lat": 37.5772,
    "lon": 127.01219,
    "zipcode": "03091",
    "fee": 0,
    "sat_yn": "N"
  },
  {
    "district": "종로구",
    "center_name": "중앙지역아동센터",
    "address": "서울 종로구 충신길 22, 3층 (종로6가)",
    "phone": "02-744-7430",
    "capacity": 29,
    "lat": 37.574,
    "lon": 127.00825,
    "zipcode": "03098",
    "fee": 0,
    "sat_yn": "N"
  },
  {
    "district": "종로구",
    "center_name": "참신나는학교지역아동센터",
    "address": "서울 종로구 종로53길 7-10 (창신동)",
    "phone": "02-744-4048",
    "capacity": 35,
    "lat": 37.57316,
    "lon": 127.01335,
    "zipcode": "03105",
    "fee": 0,
    "sat_yn": "N"
  },
  {
    "district": "종로구",
    "center_name": "청암지역아동센터",
    "address": "서울 종로구 창신8길 13 (창신동)",
    "phone": "02-742-9827",
    "capacity": 19,
    "lat": 37.57734,
    "lon": 127.01035,
    "zipcode": "03090",
    "fee": 0,
    "sat_yn": "N"
  },
  {
    "district": "종로구",
    "center_name": "친구네지역아동센터",
    "address": "서울 종로구 창신길 59, 4층 (창신동)",
    "phone": "02-745-0794",
    "capacity": 29,
    "lat": 37.57439,
    "lon": 127.01052,
    "zipcode": "03097",
    "fee": 0,
    "sat_yn": "N"
  },
  {
    "district": "종로구",
    "center_name": "한누리지역아동센터",
    "address": "서울 종로구 통일로12길 16-5 (무악동)",
    "phone": "02-735-3633",
    "capacity": 19,
    "lat": 37.57344,
    "lon": 126.96053,
    "zipcode": "03029",
    "fee": 0,
    "sat_yn": "N"
  },
  {
    "district": "종로구",
    "center_name": "해송지역아동센터",
    "address": "서울 종로구 낙산성곽동길 59-10 (창신동)",
    "phone": "02-762-9201",
    "capacity": 19,
    "lat": 37.57785,
    "lon": 127.00867,
    "zipcode": "03089",
    "fee": 0,
    "sat_yn": "N"
  },
  {
    "district": "중구",
    "center_name": "나비훨훨지역아동센터",
    "address": "서울 중구 다산로 75, 2층 (신당동)",
    "phone": "02-2237-8390",
    "capacity": 19,
    "lat": 37.55128714,
    "lon": 127.0076083,
    "zipcode": "04599",
    "fee": 0,
    "sat_yn": "N"
  },
  {
    "district": "중구",
    "center_name": "신당꿈구립지역아동센터",
    "address": "서울 중구 다산로21길 23, 1층 (신당동)",
    "phone": "02-2297-5518",
    "capacity": 35,
    "lat": 37.5582081,
    "lon": 127.0109461,
    "zipcode": "04607",
    "fee": 0,
    "sat_yn": "N"
  },
  {
    "district": "중랑구",
    "center_name": "녹색지역아동센터",
    "address": "서울 중랑구 겸재로 78, 3층 (면목동)",
    "phone": "070-8688-4343",
    "capacity": 32,
    "lat": 37.5857417455,
    "lon": 127.0766898168,
    "zipcode": "02230",
    "fee": 0,
    "sat_yn": "N"
  },
  {
    "district": "중랑구",
    "center_name": "놀이터지역아동센터",
    "address": "서울 중랑구 동일로 880, 2층 (묵동)",
    "phone": "02-973-7210",
    "capacity": 32,
    "lat": 37.6090606704,
    "lon": 127.0783118881,
    "zipcode": "02039",
    "fee": 0,
    "sat_yn": "N"
  },
  {
    "district": "중랑구",
    "center_name": "동원지역아동센터",
    "address": "서울 중랑구 면목로56길 38 (면목동)",
    "phone": "02-433-3324",
    "capacity": 19,
    "lat": 37.58387623,
    "lon": 127.0904472,
    "zipcode": "02210",
    "fee": 0,
    "sat_yn": "N"
  },
  {
    "district": "중랑구",
    "center_name": "마루아라지역아동센터",
    "address": "서울 중랑구 신내로 115, 2층 (신내동)",
    "phone": "02-6671-7533",
    "capacity": 22,
    "lat": 37.6092975271,
    "lon": 127.0949042017,
    "zipcode": "02043",
    "fee": 0,
    "sat_yn": "N"
  },
  {
    "district": "중랑구",
    "center_name": "만나지역아동센터",
    "address": "서울 중랑구 동일로 620, 3층 (면목동)",
    "phone": "02-438-9191",
    "capacity": 23,
    "lat": 37.5857735287,
    "lon": 127.0801139385,
    "zipcode": "02215",
    "fee": 0,
    "sat_yn": "Y"
  },
  {
    "district": "중랑구",
    "center_name": "면목지역아동센터",
    "address": "서울 중랑구 면목로33길 79, 2층 (면목동)",
    "phone": "02-2209-6010",
    "capacity": 25,
    "lat": 37.5763480718,
    "lon": 127.0814071681,
    "zipcode": "02243",
    "fee": 0,
    "sat_yn": "N"
  },
  {
    "district": "중랑구",
    "center_name": "봄이랑지역아동센터",
    "address": "서울 중랑구 봉우재로 58길 16, 3층 (망우동)",
    "phone": "02-432-3082",
    "capacity": 24,
    "lat": 37.5937889058,
    "lon": 127.0953090076,
    "zipcode": "02174",
    "fee": 0,
    "sat_yn": "N"
  },
  {
    "district": "중랑구",
    "center_name": "생명강지역아동센터",
    "address": "서울 중랑구 동일로123길 21, 2층 (중화동)",
    "phone": "02-438-0118",
    "capacity": 40,
    "lat": 37.5975186764,
    "lon": 127.0789136478,
    "zipcode": "02108",
    "fee": 0,
    "sat_yn": "Y"
  },
  {
    "district": "중랑구",
    "center_name": "서울지역아동센터",
    "address": "서울 중랑구 겸재로35길 38 (면목동)",
    "phone": "02-432-9004",
    "capacity": 35,
    "lat": 37.58975519,
    "lon": 127.0857628,
    "zipcode": "02146",
    "fee": 0,
    "sat_yn": "Y"
  },
  {
    "district": "중랑구",
    "center_name": "성심지역아동센터",
    "address": "서울 중랑구 용마산로94길 88, 2층 (면목동)",
    "phone": "02-494-5072",
    "capacity": 35,
    "lat": 37.5876570592,
    "lon": 127.1013256214,
    "zipcode": "02191",
    "fee": 0,
    "sat_yn": "N"
  },
  {
    "district": "중랑구",
    "center_name": "솔로몬지역아동센터",
    "address": "서울 중랑구 망우로73길 83, 1층 (망우동)",
    "phone": "02-439-8679",
    "capacity": 39,
    "lat": 37.6042040843,
    "lon": 127.1033421167,
    "zipcode": "02060",
    "fee": 0,
    "sat_yn": "N"
  },
  {
    "district": "중랑구",
    "center_name": "씨앗지역아동센터",
    "address": "서울 중랑구 겸재로 193, 2층 (면목동)",
    "phone": "070-7434-3006",
    "capacity": 32,
    "lat": 37.5889344603,
    "lon": 127.0890688167,
    "zipcode": "02161",
    "fee": 0,
    "sat_yn": "N"
  },
  {
    "district": "중랑구",
    "center_name": "열린지역아동센터",
    "address": "서울 중랑구 망우로67가길 11, 2층 (망우동)",
    "phone": "02-435-2153",
    "capacity": 25,
    "lat": 37.6026650687,
    "lon": 127.1020358606,
    "zipcode": "02059",
    "fee": 0,
    "sat_yn": "N"
  },
  {
    "district": "중랑구",
    "center_name": "영안지역아동센터",
    "address": "서울 중랑구 겸재로9길 15, 2층 (면목동)",
    "phone": "02-492-8728",
    "capacity": 25,
    "lat": 37.5870871972,
    "lon": 127.078201455,
    "zipcode": "02134",
    "fee": 0,
    "sat_yn": "N"
  },
  {
    "district": "중랑구",
    "center_name": "중화지역아동센터",
    "address": "서울 중랑구 봉화산로 98 (중화동)",
    "phone": "02-438-3025",
    "capacity": 25,
    "lat": 37.60222749,
    "lon": 127.0853126,
    "zipcode": "02090",
    "fee": 0,
    "sat_yn": "N"
  },
  {
    "district": "중랑구",
    "center_name": "즐거운지역아동센터",
    "address": "서울 중랑구 동일로 675 (면목동)",
    "phone": "02-495-9839",
    "capacity": 32,
    "lat": 37.5906368075,
    "lon": 127.0797264813,
    "zipcode": "02231",
    "fee": 0,
    "sat_yn": "N"
  },
  {
    "district": "중랑구",
    "center_name": "차오름지역아동센터",
    "address": "서울 중랑구 상봉로12길 38 (망우동)",
    "phone": "02-433-2077",
    "capacity": 19,
    "lat": 37.5907856471,
    "lon": 127.0957335147,
    "zipcode": "02162",
    "fee": 0,
    "sat_yn": "N"
  },
  {
    "district": "중랑구",
    "center_name": "참사랑지역아동센터",
    "address": "서울 중랑구 면목로48길 56, 3층 (면목동)",
    "phone": "02-493-0009",
    "capacity": 32,
    "lat": 37.5819392973,
    "lon": 127.091703676,
    "zipcode": "02212",
    "fee": 0,
    "sat_yn": "N"
  },
  {
    "district": "중랑구",
    "center_name": "참이랑지역아동센터",
    "address": "서울 중랑구 상봉중앙로 44-1, 2층 (상봉1동)",
    "phone": "02-433-3131",
    "capacity": 25,
    "lat": 37.60116101,
    "lon": 127.0876152,
    "zipcode": "02082",
    "fee": 0,
    "sat_yn": "N"
  },
  {
    "district": "중랑구",
    "center_name": "참좋은지역아동센터",
    "address": "서울 중랑구 용마산로 442-1, 2층 (망우동)",
    "phone": "02-493-3393",
    "capacity": 29,
    "lat": 37.5908568217,
    "lon": 127.097825926,
    "zipcode": "02188",
    "fee": 0,
    "sat_yn": "N"
  },
  {
    "district": "중랑구",
    "center_name": "파란나라지역아동센터",
    "address": "서울 중랑구 면목로 452, 2층 (면목동)",
    "phone": "02-494-0476",
    "capacity": 19,
    "lat": 37.5922081484,
    "lon": 127.086860677,
    "zipcode": "02155",
    "fee": 0,
    "sat_yn": "N"
  },
  {
    "district": "중랑구",
    "center_name": "파랑새지역아동센터",
    "address": "서울 중랑구 용마산로129가길 54, 3층 (신내동)",
    "phone": "02-432-5622",
    "capacity": 26,
    "lat": 37.6052203643,
    "lon": 127.0995054117,
    "zipcode": "02054",
    "fee": 0,
    "sat_yn": "N"
  },
  {
    "district": "중랑구",
    "center_name": "한길지역아동센터",
    "address": "서울 중랑구 동일로110길 37, 1층 (상봉동)",
    "phone": "02-435-6022",
    "capacity": 40,
    "lat": 37.59219522,
    "lon": 127.0823982,
    "zipcode": "02139",
    "fee": 0,
    "sat_yn": "N"
  }
]